{"type":"FeatureCollection","features":[{"type":"Feature","geometry":{"type":"Point","coordinates":[-87.669147,41.857908]},"properties":{"layer":"cta_station","name":"18th"}},{"type":"Feature","geometry":{"type":"Point","coordinates":[-87.680622,41.829353]},"properties":{"layer":"cta_station","name":"35th/Archer"}},{"type":"Feature","geometry":{"type":"Point","coordinates":[-87.625826,41.831677]},"properties":{"layer":"cta_station","name":"35th-Bronzeville-IIT"}},{"type":"Feature","geometry":{"type":"Point","coordinates":[-87.619021,41.816462]},"properties":{"layer":"cta_station","name":"43rd"}},{"type":"Feature","geometry":{"type":"Point","coordinates":[-87.618826,41.809209]},"properties":{"layer":"cta_station","name":"47th"}},{"type":"Feature","geometry":{"type":"Point","coordinates":[-87.63094,41.810318]},"properties":{"layer":"cta_station","name":"47th"}},{"type":"Feature","geometry":{"type":"Point","coordinates":[-87.618487,41.80209]},"properties":{"layer":"cta_station","name":"51st"}},{"type":"Feature","geometry":{"type":"Point","coordinates":[-87.75669201,41.85177331]},"properties":{"layer":"cta_station","name":"54th/Cermak"}},{"type":"Feature","geometry":{"type":"Point","coordinates":[-87.630952,41.780536]},"properties":{"layer":"cta_station","name":"63rd"}},{"type":"Feature","geometry":{"type":"Point","coordinates":[-87.625724,41.768367]},"properties":{"layer":"cta_station","name":"69th"}},{"type":"Feature","geometry":{"type":"Point","coordinates":[-87.625112,41.750419]},"properties":{"layer":"cta_station","name":"79th"}},{"type":"Feature","geometry":{"type":"Point","coordinates":[-87.624717,41.735372]},"properties":{"layer":"cta_station","name":"87th"}},{"type":"Feature","geometry":{"type":"Point","coordinates":[-87.624342,41.722377]},"properties":{"layer":"cta_station","name":"95th/Dan Ryan"}},{"type":"Feature","geometry":{"type":"Point","coordinates":[-87.626037,41.879507]},"properties":{"layer":"cta_station","name":"Adams/Wabash"}},{"type":"Feature","geometry":{"type":"Point","coordinates":[-87.653626,41.947428]},"properties":{"layer":"cta_station","name":"Addison"}},{"type":"Feature","geometry":{"type":"Point","coordinates":[-87.674642,41.947028]},"properties":{"layer":"cta_station","name":"Addison"}},{"type":"Feature","geometry":{"type":"Point","coordinates":[-87.71906,41.94738]},"properties":{"layer":"cta_station","name":"Addison"}},{"type":"Feature","geometry":{"type":"Point","coordinates":[-87.65853,41.973453]},"properties":{"layer":"cta_station","name":"Argyle"}},{"type":"Feature","geometry":{"type":"Point","coordinates":[-87.652644,41.918217]},"properties":{"layer":"cta_station","name":"Armitage"}},{"type":"Feature","geometry":{"type":"Point","coordinates":[-87.666969,41.885269]},"properties":{"layer":"cta_station","name":"Ashland"}},{"type":"Feature","geometry":{"type":"Point","coordinates":[-87.665317,41.839234]},"properties":{"layer":"cta_station","name":"Ashland"}},{"type":"Feature","geometry":{"type":"Point","coordinates":[-87.663766,41.77886]},"properties":{"layer":"cta_station","name":"Ashland/63rd"}},{"type":"Feature","geometry":{"type":"Point","coordinates":[-87.776812,41.870851]},"properties":{"layer":"cta_station","name":"Austin"}},{"type":"Feature","geometry":{"type":"Point","coordinates":[-87.774135,41.887293]},"properties":{"layer":"cta_station","name":"Austin"}},{"type":"Feature","geometry":{"type":"Point","coordinates":[-87.712359,41.938132]},"properties":{"layer":"cta_station","name":"Belmont"}},{"type":"Feature","geometry":{"type":"Point","coordinates":[-87.65338,41.939751]},"properties":{"layer":"cta_station","name":"Belmont"}},{"type":"Feature","geometry":{"type":"Point","coordinates":[-87.658668,41.977984]},"properties":{"layer":"cta_station","name":"Berwyn"}},{"type":"Feature","geometry":{"type":"Point","coordinates":[-87.65884,41.983504]},"properties":{"layer":"cta_station","name":"Bryn Mawr"}},{"type":"Feature","geometry":{"type":"Point","coordinates":[-87.696234,41.88422]},"properties":{"layer":"cta_station","name":"California"}},{"type":"Feature","geometry":{"type":"Point","coordinates":[-87.69689,41.921939]},"properties":{"layer":"cta_station","name":"California"}},{"type":"Feature","geometry":{"type":"Point","coordinates":[-87.694774,41.854109]},"properties":{"layer":"cta_station","name":"California"}},{"type":"Feature","geometry":{"type":"Point","coordinates":[-87.76565,41.887389]},"properties":{"layer":"cta_station","name":"Central"}},{"type":"Feature","geometry":{"type":"Point","coordinates":[-87.685617,42.063987]},"properties":{"layer":"cta_station","name":"Central"}},{"type":"Feature","geometry":{"type":"Point","coordinates":[-87.714842,41.853839]},"properties":{"layer":"cta_station","name":"Central Park"}},{"type":"Feature","geometry":{"type":"Point","coordinates":[-87.630968,41.853206]},"properties":{"layer":"cta_station","name":"Cermak-Chinatown"}},{"type":"Feature","geometry":{"type":"Point","coordinates":[-87.626402,41.853115]},"properties":{"layer":"cta_station","name":"Cermak-McCormick Place"}},{"type":"Feature","geometry":{"type":"Point","coordinates":[-87.628176,41.896671]},"properties":{"layer":"cta_station","name":"Chicago"}},{"type":"Feature","geometry":{"type":"Point","coordinates":[-87.635924,41.89681]},"properties":{"layer":"cta_station","name":"Chicago"}},{"type":"Feature","geometry":{"type":"Point","coordinates":[-87.655214,41.896075]},"properties":{"layer":"cta_station","name":"Chicago"}},{"type":"Feature","geometry":{"type":"Point","coordinates":[-87.745154,41.871574]},"properties":{"layer":"cta_station","name":"Cicero"}},{"type":"Feature","geometry":{"type":"Point","coordinates":[-87.744698,41.886519]},"properties":{"layer":"cta_station","name":"Cicero"}},{"type":"Feature","geometry":{"type":"Point","coordinates":[-87.745336,41.85182]},"properties":{"layer":"cta_station","name":"Cicero"}},{"type":"Feature","geometry":{"type":"Point","coordinates":[-87.631412,41.90392]},"properties":{"layer":"cta_station","name":"Clark/Division"}},{"type":"Feature","geometry":{"type":"Point","coordinates":[-87.630886,41.885737]},"properties":{"layer":"cta_station","name":"Clark/Lake"}},{"type":"Feature","geometry":{"type":"Point","coordinates":[-87.641782,41.885678]},"properties":{"layer":"cta_station","name":"Clinton"}},{"type":"Feature","geometry":{"type":"Point","coordinates":[-87.640984,41.875539]},"properties":{"layer":"cta_station","name":"Clinton"}},{"type":"Feature","geometry":{"type":"Point","coordinates":[-87.716523,41.884904]},"properties":{"layer":"cta_station","name":"Conservatory"}},{"type":"Feature","geometry":{"type":"Point","coordinates":[-87.605857,41.780309]},"properties":{"layer":"cta_station","name":"Cottage Grove"}},{"type":"Feature","geometry":{"type":"Point","coordinates":[-87.838028,41.984246]},"properties":{"layer":"cta_station","name":"Cumberland"}},{"type":"Feature","geometry":{"type":"Point","coordinates":[-87.677437,41.909744]},"properties":{"layer":"cta_station","name":"Damen"}},{"type":"Feature","geometry":{"type":"Point","coordinates":[-87.67689149,41.88497405]},"properties":{"layer":"cta_station","name":"Damen"}},{"type":"Feature","geometry":{"type":"Point","coordinates":[-87.675975,41.854517]},"properties":{"layer":"cta_station","name":"Damen"}},{"type":"Feature","geometry":{"type":"Point","coordinates":[-87.678639,41.966286]},"properties":{"layer":"cta_station","name":"Damen"}},{"type":"Feature","geometry":{"type":"Point","coordinates":[-87.683543,42.04771]},"properties":{"layer":"cta_station","name":"Davis"}},{"type":"Feature","geometry":{"type":"Point","coordinates":[-87.681602,42.041655]},"properties":{"layer":"cta_station","name":"Dempster"}},{"type":"Feature","geometry":{"type":"Point","coordinates":[-87.751919,42.038951]},"properties":{"layer":"cta_station","name":"Dempster-Skokie"}},{"type":"Feature","geometry":{"type":"Point","coordinates":[-87.653131,41.932732]},"properties":{"layer":"cta_station","name":"Diversey"}},{"type":"Feature","geometry":{"type":"Point","coordinates":[-87.666496,41.903355]},"properties":{"layer":"cta_station","name":"Division"}},{"type":"Feature","geometry":{"type":"Point","coordinates":[-87.817318,41.874257]},"properties":{"layer":"cta_station","name":"Forest Park"}},{"type":"Feature","geometry":{"type":"Point","coordinates":[-87.68356,42.05416]},"properties":{"layer":"cta_station","name":"Foster"}},{"type":"Feature","geometry":{"type":"Point","coordinates":[-87.701644,41.966046]},"properties":{"layer":"cta_station","name":"Francisco"}},{"type":"Feature","geometry":{"type":"Point","coordinates":[-87.652866,41.925051]},"properties":{"layer":"cta_station","name":"Fullerton"}},{"type":"Feature","geometry":{"type":"Point","coordinates":[-87.631157,41.79542]},"properties":{"layer":"cta_station","name":"Garfield"}},{"type":"Feature","geometry":{"type":"Point","coordinates":[-87.618327,41.795172]},"properties":{"layer":"cta_station","name":"Garfield"}},{"type":"Feature","geometry":{"type":"Point","coordinates":[-87.628021,41.891665]},"properties":{"layer":"cta_station","name":"Grand"}},{"type":"Feature","geometry":{"type":"Point","coordinates":[-87.647578,41.891189]},"properties":{"layer":"cta_station","name":"Grand"}},{"type":"Feature","geometry":{"type":"Point","coordinates":[-87.659202,41.993664]},"properties":{"layer":"cta_station","name":"Granville"}},{"type":"Feature","geometry":{"type":"Point","coordinates":[-87.644244,41.778943]},"properties":{"layer":"cta_station","name":"Halsted"}},{"type":"Feature","geometry":{"type":"Point","coordinates":[-87.648088,41.84678]},"properties":{"layer":"cta_station","name":"Halsted"}},{"type":"Feature","geometry":{"type":"Point","coordinates":[-87.806961,41.87349]},"properties":{"layer":"cta_station","name":"Harlem"}},{"type":"Feature","geometry":{"type":"Point","coordinates":[-87.8089,41.98227]},"properties":{"layer":"cta_station","name":"Harlem"}},{"type":"Feature","geometry":{"type":"Point","coordinates":[-87.803176,41.886848]},"properties":{"layer":"cta_station","name":"Harlem/Lake"}},{"type":"Feature","geometry":{"type":"Point","coordinates":[-87.628196,41.876862]},"properties":{"layer":"cta_station","name":"Harold Washington Library-State/Van Buren"}},{"type":"Feature","geometry":{"type":"Point","coordinates":[-87.627479,41.874039]},"properties":{"layer":"cta_station","name":"Harrison"}},{"type":"Feature","geometry":{"type":"Point","coordinates":[-87.672892,42.019063]},"properties":{"layer":"cta_station","name":"Howard"}},{"type":"Feature","geometry":{"type":"Point","coordinates":[-87.673932,41.875706]},"properties":{"layer":"cta_station","name":"Illinois Medical District"}},{"type":"Feature","geometry":{"type":"Point","coordinates":[-87.621371,41.821732]},"properties":{"layer":"cta_station","name":"Indiana"}},{"type":"Feature","geometry":{"type":"Point","coordinates":[-87.729229,41.952925]},"properties":{"layer":"cta_station","name":"Irving Park"}},{"type":"Feature","geometry":{"type":"Point","coordinates":[-87.674868,41.954521]},"properties":{"layer":"cta_station","name":"Irving Park"}},{"type":"Feature","geometry":{"type":"Point","coordinates":[-87.629296,41.878183]},"properties":{"layer":"cta_station","name":"Jackson"}},{"type":"Feature","geometry":{"type":"Point","coordinates":[-87.627596,41.878153]},"properties":{"layer":"cta_station","name":"Jackson"}},{"type":"Feature","geometry":{"type":"Point","coordinates":[-87.669092,42.015876]},"properties":{"layer":"cta_station","name":"Jarvis"}},{"type":"Feature","geometry":{"type":"Point","coordinates":[-87.760892,41.970634]},"properties":{"layer":"cta_station","name":"Jefferson Park"}},{"type":"Feature","geometry":{"type":"Point","coordinates":[-87.704406,41.804236]},"properties":{"layer":"cta_station","name":"Kedzie"}},{"type":"Feature","geometry":{"type":"Point","coordinates":[-87.706155,41.884321]},"properties":{"layer":"cta_station","name":"Kedzie"}},{"type":"Feature","geometry":{"type":"Point","coordinates":[-87.705408,41.853964]},"properties":{"layer":"cta_station","name":"Kedzie"}},{"type":"Feature","geometry":{"type":"Point","coordinates":[-87.708821,41.965996]},"properties":{"layer":"cta_station","name":"Kedzie"}},{"type":"Feature","geometry":{"type":"Point","coordinates":[-87.70604,41.874341]},"properties":{"layer":"cta_station","name":"Kedzie-Homan"}},{"type":"Feature","geometry":{"type":"Point","coordinates":[-87.713065,41.967901]},"properties":{"layer":"cta_station","name":"Kimball"}},{"type":"Feature","geometry":{"type":"Point","coordinates":[-87.615546,41.78013]},"properties":{"layer":"cta_station","name":"King Drive"}},{"type":"Feature","geometry":{"type":"Point","coordinates":[-87.733258,41.853751]},"properties":{"layer":"cta_station","name":"Kostner"}},{"type":"Feature","geometry":{"type":"Point","coordinates":[-87.627813,41.884809]},"properties":{"layer":"cta_station","name":"Lake"}},{"type":"Feature","geometry":{"type":"Point","coordinates":[-87.754986,41.887163]},"properties":{"layer":"cta_station","name":"Laramie"}},{"type":"Feature","geometry":{"type":"Point","coordinates":[-87.631722,41.875568]},"properties":{"layer":"cta_station","name":"LaSalle"}},{"type":"Feature","geometry":{"type":"Point","coordinates":[-87.631739,41.8768]},"properties":{"layer":"cta_station","name":"LaSalle/Van Buren"}},{"type":"Feature","geometry":{"type":"Point","coordinates":[-87.658493,41.969139]},"properties":{"layer":"cta_station","name":"Lawrence"}},{"type":"Feature","geometry":{"type":"Point","coordinates":[-87.69073,42.073153]},"properties":{"layer":"cta_station","name":"Linden"}},{"type":"Feature","geometry":{"type":"Point","coordinates":[-87.708541,41.929728]},"properties":{"layer":"cta_station","name":"Logan Square"}},{"type":"Feature","geometry":{"type":"Point","coordinates":[-87.661061,42.001073]},"properties":{"layer":"cta_station","name":"Loyola"}},{"type":"Feature","geometry":{"type":"Point","coordinates":[-87.679538,42.033456]},"properties":{"layer":"cta_station","name":"Main"}},{"type":"Feature","geometry":{"type":"Point","coordinates":[-87.633924,41.888969]},"properties":{"layer":"cta_station","name":"Merchandise Mart"}},{"type":"Feature","geometry":{"type":"Point","coordinates":[-87.737875,41.78661]},"properties":{"layer":"cta_station","name":"Midway"}},{"type":"Feature","geometry":{"type":"Point","coordinates":[-87.627696,41.880745]},"properties":{"layer":"cta_station","name":"Monroe"}},{"type":"Feature","geometry":{"type":"Point","coordinates":[-87.629378,41.880703]},"properties":{"layer":"cta_station","name":"Monroe"}},{"type":"Feature","geometry":{"type":"Point","coordinates":[-87.743574,41.961539]},"properties":{"layer":"cta_station","name":"Montrose"}},{"type":"Feature","geometry":{"type":"Point","coordinates":[-87.675047,41.961756]},"properties":{"layer":"cta_station","name":"Montrose"}},{"type":"Feature","geometry":{"type":"Point","coordinates":[-87.652193,41.885586]},"properties":{"layer":"cta_station","name":"Morgan"}},{"type":"Feature","geometry":{"type":"Point","coordinates":[-87.665909,42.008362]},"properties":{"layer":"cta_station","name":"Morse"}},{"type":"Feature","geometry":{"type":"Point","coordinates":[-87.649177,41.910655]},"properties":{"layer":"cta_station","name":"North/Clybourn"}},{"type":"Feature","geometry":{"type":"Point","coordinates":[-87.683337,42.058282]},"properties":{"layer":"cta_station","name":"Noyes"}},{"type":"Feature","geometry":{"type":"Point","coordinates":[-87.793783,41.886988]},"properties":{"layer":"cta_station","name":"Oak Park"}},{"type":"Feature","geometry":{"type":"Point","coordinates":[-87.791602,41.872108]},"properties":{"layer":"cta_station","name":"Oak Park"}},{"type":"Feature","geometry":{"type":"Point","coordinates":[-87.74722084,42.02624348]},"properties":{"layer":"cta_station","name":"Oakton-Skokie"}},{"type":"Feature","geometry":{"type":"Point","coordinates":[-87.90422307,41.97766526]},"properties":{"layer":"cta_station","name":"O'Hare"}},{"type":"Feature","geometry":{"type":"Point","coordinates":[-87.670907,41.943623]},"properties":{"layer":"cta_station","name":"Paulina"}},{"type":"Feature","geometry":{"type":"Point","coordinates":[-87.66953,41.871551]},"properties":{"layer":"cta_station","name":"Polk"}},{"type":"Feature","geometry":{"type":"Point","coordinates":[-87.725404,41.885412]},"properties":{"layer":"cta_station","name":"Pulaski"}},{"type":"Feature","geometry":{"type":"Point","coordinates":[-87.725663,41.873797]},"properties":{"layer":"cta_station","name":"Pulaski"}},{"type":"Feature","geometry":{"type":"Point","coordinates":[-87.724311,41.853732]},"properties":{"layer":"cta_station","name":"Pulaski"}},{"type":"Feature","geometry":{"type":"Point","coordinates":[-87.724493,41.799756]},"properties":{"layer":"cta_station","name":"Pulaski"}},{"type":"Feature","geometry":{"type":"Point","coordinates":[-87.63374,41.878723]},"properties":{"layer":"cta_station","name":"Quincy/Wells"}},{"type":"Feature","geometry":{"type":"Point","coordinates":[-87.659458,41.87592]},"properties":{"layer":"cta_station","name":"Racine"}},{"type":"Feature","geometry":{"type":"Point","coordinates":[-87.783661,41.887159]},"properties":{"layer":"cta_station","name":"Ridgeland"}},{"type":"Feature","geometry":{"type":"Point","coordinates":[-87.6941,41.966115]},"properties":{"layer":"cta_station","name":"Rockwell"}},{"type":"Feature","geometry":{"type":"Point","coordinates":[-87.627402,41.867368]},"properties":{"layer":"cta_station","name":"Roosevelt"}},{"type":"Feature","geometry":{"type":"Point","coordinates":[-87.859388,41.983507]},"properties":{"layer":"cta_station","name":"Rosemont"}},{"type":"Feature","geometry":{"type":"Point","coordinates":[-87.639302,41.910409]},"properties":{"layer":"cta_station","name":"Sedgwick"}},{"type":"Feature","geometry":{"type":"Point","coordinates":[-87.654929,41.953775]},"properties":{"layer":"cta_station","name":"Sheridan"}},{"type":"Feature","geometry":{"type":"Point","coordinates":[-87.678329,42.027612]},"properties":{"layer":"cta_station","name":"South Boulevard"}},{"type":"Feature","geometry":{"type":"Point","coordinates":[-87.663619,41.943744]},"properties":{"layer":"cta_station","name":"Southport"}},{"type":"Feature","geometry":{"type":"Point","coordinates":[-87.630636,41.831191]},"properties":{"layer":"cta_station","name":"Sox-35th"}},{"type":"Feature","geometry":{"type":"Point","coordinates":[-87.627835,41.88574]},"properties":{"layer":"cta_station","name":"State/Lake"}},{"type":"Feature","geometry":{"type":"Point","coordinates":[-87.659076,41.990259]},"properties":{"layer":"cta_station","name":"Thorndale"}},{"type":"Feature","geometry":{"type":"Point","coordinates":[-87.649707,41.875474]},"properties":{"layer":"cta_station","name":"UIC-Halsted"}},{"type":"Feature","geometry":{"type":"Point","coordinates":[-87.62944,41.883164]},"properties":{"layer":"cta_station","name":"Washington"}},{"type":"Feature","geometry":{"type":"Point","coordinates":[-87.626189,41.88322]},"properties":{"layer":"cta_station","name":"Washington/Wabash"}},{"type":"Feature","geometry":{"type":"Point","coordinates":[-87.63378,41.882695]},"properties":{"layer":"cta_station","name":"Washington/Wells"}},{"type":"Feature","geometry":{"type":"Point","coordinates":[-87.653266,41.936033]},"properties":{"layer":"cta_station","name":"Wellington"}},{"type":"Feature","geometry":{"type":"Point","coordinates":[-87.688502,41.966163]},"properties":{"layer":"cta_station","name":"Western"}},{"type":"Feature","geometry":{"type":"Point","coordinates":[-87.687364,41.916157]},"properties":{"layer":"cta_station","name":"Western"}},{"type":"Feature","geometry":{"type":"Point","coordinates":[-87.688436,41.875478]},"properties":{"layer":"cta_station","name":"Western"}},{"type":"Feature","geometry":{"type":"Point","coordinates":[-87.684019,41.804546]},"properties":{"layer":"cta_station","name":"Western"}},{"type":"Feature","geometry":{"type":"Point","coordinates":[-87.685129,41.854225]},"properties":{"layer":"cta_station","name":"Western"}},{"type":"Feature","geometry":{"type":"Point","coordinates":[-87.657588,41.964273]},"properties":{"layer":"cta_station","name":"Wilson"}},{"type":"Feature","geometry":{"type":"Point","coordinates":[-87.7447132,42.0528831]},"properties":{"layer":"grocery_point","name":"Jewel-Osco"}},{"type":"Feature","geometry":{"type":"Point","coordinates":[-87.6980674,41.9387842]},"properties":{"layer":"grocery_point","name":"Carniceria Guanajuato"}},{"type":"Feature","geometry":{"type":"Point","coordinates":[-87.6498096,41.9483162]},"properties":{"layer":"grocery_point","name":"Whole Foods Market"}},{"type":"Feature","geometry":{"type":"Point","coordinates":[-87.7292639,42.040987]},"properties":{"layer":"grocery_point","name":"Village Market Place"}},{"type":"Feature","geometry":{"type":"Point","coordinates":[-87.6189659,41.8854048]},"properties":{"layer":"grocery_point","name":"Mariano's Fresh Market"}},{"type":"Feature","geometry":{"type":"Point","coordinates":[-87.691589,41.9027801]},"properties":{"layer":"grocery_point","name":"Municipal Market"}},{"type":"Feature","geometry":{"type":"Point","coordinates":[-87.6387819,41.8682107]},"properties":{"layer":"grocery_point","name":"Whole Foods Market"}},{"type":"Feature","geometry":{"type":"Point","coordinates":[-87.6534799,41.9612944]},"properties":{"layer":"grocery_point","name":"Jewel-Osco"}},{"type":"Feature","geometry":{"type":"Point","coordinates":[-87.6670593,42.0080973]},"properties":{"layer":"grocery_point","name":"Morse Fresh Market"}},{"type":"Feature","geometry":{"type":"Point","coordinates":[-87.6761045,41.831001]},"properties":{"layer":"grocery_point","name":"Cermak Fresh Market"}},{"type":"Feature","geometry":{"type":"Point","coordinates":[-87.6285729,41.8921706]},"properties":{"layer":"grocery_point","name":"Jewel-Osco"}},{"type":"Feature","geometry":{"type":"Point","coordinates":[-87.7057244,41.8033885]},"properties":{"layer":"grocery_point","name":"Aldi"}},{"type":"Feature","geometry":{"type":"Point","coordinates":[-87.7070999,42.0325982]},"properties":{"layer":"grocery_point","name":"Food 4 Less"}},{"type":"Feature","geometry":{"type":"Point","coordinates":[-87.6221064,41.8866379]},"properties":{"layer":"grocery_point","name":"Bockwinkel's"}},{"type":"Feature","geometry":{"type":"Point","coordinates":[-87.700098,42.0387042]},"properties":{"layer":"grocery_point","name":"Valli Produce"}},{"type":"Feature","geometry":{"type":"Point","coordinates":[-87.6262699,41.8934915]},"properties":{"layer":"grocery_point","name":"Trader Joe's"}},{"type":"Feature","geometry":{"type":"Point","coordinates":[-87.6694606,41.9065353]},"properties":{"layer":"grocery_point","name":"Jewel-Osco"}},{"type":"Feature","geometry":{"type":"Point","coordinates":[-87.614658,41.8327674]},"properties":{"layer":"grocery_point","name":"Jewel-Osco"}},{"type":"Feature","geometry":{"type":"Point","coordinates":[-87.7250281,41.795988]},"properties":{"layer":"grocery_point","name":"Jewel-Osco"}},{"type":"Feature","geometry":{"type":"Point","coordinates":[-87.7053678,41.807559]},"properties":{"layer":"grocery_point","name":"Pete's Market"}},{"type":"Feature","geometry":{"type":"Point","coordinates":[-87.6256386,41.8678438]},"properties":{"layer":"grocery_point","name":"Trader Joe's"}},{"type":"Feature","geometry":{"type":"Point","coordinates":[-87.6440766,41.9353779]},"properties":{"layer":"grocery_point","name":"Apple Bite Liquor"}},{"type":"Feature","geometry":{"type":"Point","coordinates":[-87.6327227,41.8439368]},"properties":{"layer":"grocery_point","name":"Fat Lee Supermarket"}},{"type":"Feature","geometry":{"type":"Point","coordinates":[-87.6282472,41.7375511]},"properties":{"layer":"grocery_point","name":"Food 4 Less"}},{"type":"Feature","geometry":{"type":"Point","coordinates":[-87.6551388,41.9146551]},"properties":{"layer":"grocery_point","name":"Trader Joe's"}},{"type":"Feature","geometry":{"type":"Point","coordinates":[-87.664503,41.954235]},"properties":{"layer":"grocery_point","name":"Spencer's Jolly Posh Foods"}},{"type":"Feature","geometry":{"type":"Point","coordinates":[-87.711497,41.93985]},"properties":{"layer":"grocery_point","name":"Aldi"}},{"type":"Feature","geometry":{"type":"Point","coordinates":[-87.5851227,41.7951104]},"properties":{"layer":"grocery_point","name":"Open Produce"}},{"type":"Feature","geometry":{"type":"Point","coordinates":[-87.6601775,41.9949958]},"properties":{"layer":"grocery_point","name":"Aldi"}},{"type":"Feature","geometry":{"type":"Point","coordinates":[-87.8379362,41.9656283]},"properties":{"layer":"grocery_point","name":"Jewel-Osco"}},{"type":"Feature","geometry":{"type":"Point","coordinates":[-87.6748936,41.9690349]},"properties":{"layer":"grocery_point","name":"Mariano's Fresh Market"}},{"type":"Feature","geometry":{"type":"Point","coordinates":[-87.810902,41.975115]},"properties":{"layer":"grocery_point","name":"Jewel-Osco"}},{"type":"Feature","geometry":{"type":"Point","coordinates":[-87.685483,41.8802836]},"properties":{"layer":"grocery_point","name":"Pete's Market"}},{"type":"Feature","geometry":{"type":"Point","coordinates":[-87.6285605,41.8964677]},"properties":{"layer":"grocery_point","name":"Whole Foods Market"}},{"type":"Feature","geometry":{"type":"Point","coordinates":[-87.6205013,41.8916289]},"properties":{"layer":"grocery_point","name":"Whole Foods Market"}},{"type":"Feature","geometry":{"type":"Point","coordinates":[-87.686469,41.997899]},"properties":{"layer":"grocery_point","name":"Par-Birdie Foods"}},{"type":"Feature","geometry":{"type":"Point","coordinates":[-87.7082676,41.8968224]},"properties":{"layer":"grocery_point","name":"Aldi"}},{"type":"Feature","geometry":{"type":"Point","coordinates":[-87.6189694,41.8927815]},"properties":{"layer":"grocery_point","name":"Bockwinkel's"}},{"type":"Feature","geometry":{"type":"Point","coordinates":[-87.6472053,41.8106536]},"properties":{"layer":"grocery_point","name":"Fairplay Foods"}},{"type":"Feature","geometry":{"type":"Point","coordinates":[-87.6618896,41.8573093]},"properties":{"layer":"grocery_point","name":"La Casa del Pueblo"}},{"type":"Feature","geometry":{"type":"Point","coordinates":[-87.6867854,41.8514827]},"properties":{"layer":"grocery_point","name":"Fairplay Foods"}},{"type":"Feature","geometry":{"type":"Point","coordinates":[-87.6460408,41.90801]},"properties":{"layer":"grocery_point","name":"Mariano's Fresh Market"}},{"type":"Feature","geometry":{"type":"Point","coordinates":[-87.6398943,41.9249564]},"properties":{"layer":"grocery_point","name":"Big Apple Finer Foods"}},{"type":"Feature","geometry":{"type":"Point","coordinates":[-87.8119247,41.8636992]},"properties":{"layer":"grocery_point","name":"Living Fresh Market"}},{"type":"Feature","geometry":{"type":"Point","coordinates":[-87.8049991,41.8537951]},"properties":{"layer":"grocery_point","name":"Aldi"}},{"type":"Feature","geometry":{"type":"Point","coordinates":[-87.8060857,41.8874497]},"properties":{"layer":"grocery_point","name":"Whole Foods Market"}},{"type":"Feature","geometry":{"type":"Point","coordinates":[-87.6445626,41.9372562]},"properties":{"layer":"grocery_point","name":"Mariano's Fresh Market"}},{"type":"Feature","geometry":{"type":"Point","coordinates":[-87.7952739,41.8799549]},"properties":{"layer":"grocery_point","name":"Sugar Beet Co-op"}},{"type":"Feature","geometry":{"type":"Point","coordinates":[-87.7411931,41.8376361]},"properties":{"layer":"grocery_point","name":"Food 4 Less"}},{"type":"Feature","geometry":{"type":"Point","coordinates":[-87.7279336,41.9320449]},"properties":{"layer":"grocery_point","name":"Cermak Fresh Market"}},{"type":"Feature","geometry":{"type":"Point","coordinates":[-87.668459,41.8659038]},"properties":{"layer":"grocery_point","name":"Jewel-Osco"}},{"type":"Feature","geometry":{"type":"Point","coordinates":[-87.8055928,41.965482]},"properties":{"layer":"grocery_point","name":"Aldi"}},{"type":"Feature","geometry":{"type":"Point","coordinates":[-87.6818848,41.9134475]},"properties":{"layer":"grocery_point","name":"Aldi"}},{"type":"Feature","geometry":{"type":"Point","coordinates":[-87.6631317,41.9140129]},"properties":{"layer":"grocery_point","name":"Local Foods"}},{"type":"Feature","geometry":{"type":"Point","coordinates":[-87.6317909,41.904156]},"properties":{"layer":"grocery_point","name":"Jewel-Osco"}},{"type":"Feature","geometry":{"type":"Point","coordinates":[-87.6169427,41.7585004]},"properties":{"layer":"grocery_point","name":"M & H Market"}},{"type":"Feature","geometry":{"type":"Point","coordinates":[-87.7248617,41.7977151]},"properties":{"layer":"grocery_point","name":"Cermak Fresh Market"}},{"type":"Feature","geometry":{"type":"Point","coordinates":[-87.719851,41.9322314]},"properties":{"layer":"grocery_point","name":"Adrian's Foods Market"}},{"type":"Feature","geometry":{"type":"Point","coordinates":[-87.620352,41.7654258]},"properties":{"layer":"grocery_point","name":"Shop-N-Save"}},{"type":"Feature","geometry":{"type":"Point","coordinates":[-87.7109522,41.9310621]},"properties":{"layer":"grocery_point","name":"The Dill Pickle Food Co-op"}},{"type":"Feature","geometry":{"type":"Point","coordinates":[-87.6589052,41.9723749]},"properties":{"layer":"grocery_point","name":"Tai Nam Market"}},{"type":"Feature","geometry":{"type":"Point","coordinates":[-87.6320554,41.8484513]},"properties":{"layer":"grocery_point","name":"Silver State City Food Company"}},{"type":"Feature","geometry":{"type":"Point","coordinates":[-87.7104275,41.7859751]},"properties":{"layer":"grocery_point","name":"La Hacienda"}},{"type":"Feature","geometry":{"type":"Point","coordinates":[-87.6590545,41.9711396]},"properties":{"layer":"grocery_point","name":"Park to Shop Supermarket"}},{"type":"Feature","geometry":{"type":"Point","coordinates":[-87.7403494,41.8505619]},"properties":{"layer":"grocery_point","name":"Cermak Fresh Market"}},{"type":"Feature","geometry":{"type":"Point","coordinates":[-87.5884753,41.7963222]},"properties":{"layer":"grocery_point","name":"Trader Joe's"}},{"type":"Feature","geometry":{"type":"Point","coordinates":[-87.7651585,41.9090986]},"properties":{"layer":"grocery_point","name":"Save-A-Lot"}},{"type":"Feature","geometry":{"type":"Point","coordinates":[-87.6412111,41.8485487]},"properties":{"layer":"grocery_point","name":"Park To Shop Supermarket"}},{"type":"Feature","geometry":{"type":"Point","coordinates":[-87.6347865,41.9036208]},"properties":{"layer":"grocery_point","name":"Aldi"}},{"type":"Feature","geometry":{"type":"Point","coordinates":[-87.8355639,41.9655483]},"properties":{"layer":"grocery_point","name":"Produce World"}},{"type":"Feature","geometry":{"type":"Point","coordinates":[-87.684829,41.997948]},"properties":{"layer":"grocery_point","name":"Rahmat Grocery and Zabiha Halal Meat"}},{"type":"Feature","geometry":{"type":"Point","coordinates":[-87.6418163,41.8488253]},"properties":{"layer":"grocery_point","name":"FreshMart"}},{"type":"Feature","geometry":{"type":"Point","coordinates":[-87.6835277,41.9612596]},"properties":{"layer":"grocery_point","name":"L&M Fine Foods"}},{"type":"Feature","geometry":{"type":"Point","coordinates":[-87.6596081,41.9755885]},"properties":{"layer":"grocery_point","name":"Old World Market"}},{"type":"Feature","geometry":{"type":"Point","coordinates":[-87.6314813,41.9103929]},"properties":{"layer":"grocery_point","name":"Potash Market"}},{"type":"Feature","geometry":{"type":"Point","coordinates":[-87.6548974,41.779444]},"properties":{"layer":"grocery_point","name":"Go Green Community Fresh Market"}},{"type":"Feature","geometry":{"type":"Point","coordinates":[-87.6280658,41.8987068]},"properties":{"layer":"grocery_point","name":"Potash Markets - State Street"}},{"type":"Feature","geometry":{"type":"Point","coordinates":[-87.7081955,41.9686224]},"properties":{"layer":"grocery_point","name":"Lindo Michoac\u00e1n"}},{"type":"Feature","geometry":{"type":"Point","coordinates":[-87.7082773,41.9700294]},"properties":{"layer":"grocery_point","name":"Sahar International Market"}},{"type":"Feature","geometry":{"type":"Point","coordinates":[-87.7004392,41.9535754]},"properties":{"layer":"grocery_point","name":"Dollar City"}},{"type":"Feature","geometry":{"type":"Point","coordinates":[-87.6422709,41.9327236]},"properties":{"layer":"grocery_point","name":"Go Grocer"}},{"type":"Feature","geometry":{"type":"Point","coordinates":[-87.641115,41.9202499]},"properties":{"layer":"grocery_point","name":"Carnival Grocery"}},{"type":"Feature","geometry":{"type":"Point","coordinates":[-87.7163043,41.9685782]},"properties":{"layer":"grocery_point","name":"Chicago Produce"}},{"type":"Feature","geometry":{"type":"Point","coordinates":[-87.8046854,41.8901725]},"properties":{"layer":"grocery_point","name":"Trader Joe's"}},{"type":"Feature","geometry":{"type":"Point","coordinates":[-87.6532939,41.9102642]},"properties":{"layer":"grocery_point","name":"Wild Fork"}},{"type":"Feature","geometry":{"type":"Point","coordinates":[-87.7747846,41.9606849]},"properties":{"layer":"grocery_point","name":"La Bodega - Food Market"}},{"type":"Feature","geometry":{"type":"Point","coordinates":[-87.6396717,41.9354222]},"properties":{"layer":"grocery_point","name":"Go Grocer"}},{"type":"Feature","geometry":{"type":"Point","coordinates":[-87.6263766,41.892164]},"properties":{"layer":"grocery_point","name":"Eataly"}},{"type":"Feature","geometry":{"type":"Point","coordinates":[-87.6203853,41.8309549]},"properties":{"layer":"grocery_point","name":"Siri Indian Groceries"}},{"type":"Feature","geometry":{"type":"Point","coordinates":[-87.714692,41.9612523]},"properties":{"layer":"grocery_point","name":"Montrose Supermarket & Taqueria"}},{"type":"Feature","geometry":{"type":"Point","coordinates":[-87.6008134,41.7992762]},"properties":{"layer":"grocery_point","name":"Valley of Jordan"}},{"type":"Feature","geometry":{"type":"Point","coordinates":[-87.7566085,41.9459054]},"properties":{"layer":"grocery_point","name":"Supermarket Martins"}},{"type":"Feature","geometry":{"type":"Point","coordinates":[-87.6736968,42.0093834]},"properties":{"layer":"grocery_point","name":"Wild Onion Market"}},{"type":"Feature","geometry":{"type":"Point","coordinates":[-87.6741013,42.0088362]},"properties":{"layer":"grocery_point","name":"Casa Roman Food & Liquors"}},{"type":"Feature","geometry":{"type":"Point","coordinates":[-87.6423494,41.8800163]},"properties":{"layer":"grocery_point","name":"Metro Spice Mart"}},{"type":"Feature","geometry":{"type":"Point","coordinates":[-87.8065832,41.9662123]},"properties":{"layer":"grocery_point","name":"Rich's Food & Liquor"}},{"type":"Feature","geometry":{"type":"Point","coordinates":[-87.6683834,41.8542515]},"properties":{"layer":"grocery_point","name":"La Providencia"}},{"type":"Feature","geometry":{"type":"Point","coordinates":[-87.6566495,41.9731855]},"properties":{"layer":"grocery_point","name":"Ti\u1ec7m T\u1ea1p H\u00f3a Vi\u1ec7t Hoa"}},{"type":"Feature","geometry":{"type":"Point","coordinates":[-87.6889397,41.7863354]},"properties":{"layer":"grocery_point","name":"Mi Mexico"}},{"type":"Feature","geometry":{"type":"Point","coordinates":[-87.653251,41.896063]},"properties":{"layer":"grocery_point","name":"Gangnam Market"}},{"type":"Feature","geometry":{"type":"Point","coordinates":[-87.6218977,41.8094268]},"properties":{"layer":"grocery_point","name":"Adom African Market"}},{"type":"Feature","geometry":{"type":"Point","coordinates":[-87.7458436,41.9730252]},"properties":{"layer":"grocery_point","name":"Seafood City"}},{"type":"Feature","geometry":{"type":"Point","coordinates":[-87.6751046,41.9498654]},"properties":{"layer":"grocery_point","name":"Trader Joe's"}},{"type":"Feature","geometry":{"type":"Point","coordinates":[-87.649496,41.9325722]},"properties":{"layer":"grocery_point","name":"The Fresh Market"}},{"type":"Feature","geometry":{"type":"Point","coordinates":[-87.6572101,41.9835747]},"properties":{"layer":"grocery_point","name":"Super Food & Liquors"}},{"type":"Feature","geometry":{"type":"Point","coordinates":[-87.7276316,41.9421523]},"properties":{"layer":"grocery_point","name":"Windy City Produce"}},{"type":"Feature","geometry":{"type":"Point","coordinates":[-87.7684142,41.8946241]},"properties":{"layer":"grocery_point","name":"Forty Acres Fresh Market"}},{"type":"Feature","geometry":{"type":"Point","coordinates":[-87.6242711,41.8639606]},"properties":{"layer":"grocery_point","name":"Go Grocer"}},{"type":"Feature","geometry":{"type":"Point","coordinates":[-87.623883,41.8659275]},"properties":{"layer":"grocery_point","name":"Go Grocer"}},{"type":"Feature","geometry":{"type":"Point","coordinates":[-87.640586,41.706829]},"properties":{"layer":"grocery_point","name":"Blak's Corner Store"}},{"type":"Feature","geometry":{"type":"Point","coordinates":[-87.6915146,42.0142068]},"properties":{"layer":"grocery_point","name":"Morelia Supermarket"}},{"type":"Feature","geometry":{"type":"Point","coordinates":[-87.681157,41.9265556]},"properties":{"layer":"grocery_point","name":"Fresh Thyme"}},{"type":"Feature","geometry":{"type":"Point","coordinates":[-87.6616503,41.8832873]},"properties":{"layer":"grocery_point","name":"Plumbers 911 Chicago"}},{"type":"Feature","geometry":{"type":"Point","coordinates":[-87.6543603,41.9633185]},"properties":{"layer":"grocery_point","name":"A Plus Store"}},{"type":"Feature","geometry":{"type":"Point","coordinates":[-87.74816346830974,42.024929387920444]},"properties":{"layer":"grocery_point","name":"Market Place on Oakton"}},{"type":"Feature","geometry":{"type":"Point","coordinates":[-87.65930000292533,41.97921578836854]},"properties":{"layer":"grocery_point","name":"Jewel-Osco"}},{"type":"Feature","geometry":{"type":"Point","coordinates":[-87.65689917284328,41.96380324686489]},"properties":{"layer":"grocery_point","name":"Aldi"}},{"type":"Feature","geometry":{"type":"Point","coordinates":[-87.6807870666497,42.039343267106666]},"properties":{"layer":"grocery_point","name":"Jewel-Osco"}},{"type":"Feature","geometry":{"type":"Point","coordinates":[-87.6702488663368,41.93555737885946]},"properties":{"layer":"grocery_point","name":"Jewel-Osco"}},{"type":"Feature","geometry":{"type":"Point","coordinates":[-87.6691785193958,41.98279825242567]},"properties":{"layer":"grocery_point","name":"Jewel-Osco"}},{"type":"Feature","geometry":{"type":"Point","coordinates":[-87.69545399058453,41.96882722919488]},"properties":{"layer":"grocery_point","name":"HarvesTime Foods"}},{"type":"Feature","geometry":{"type":"Point","coordinates":[-87.83796238597067,41.98733856093631]},"properties":{"layer":"grocery_point","name":"Mariano's Fresh Market"}},{"type":"Feature","geometry":{"type":"Point","coordinates":[-87.67960472803388,42.0024021040975]},"properties":{"layer":"grocery_point","name":"Cermak Fresh Market"}},{"type":"Feature","geometry":{"type":"Point","coordinates":[-87.67837572536372,41.895521576813344]},"properties":{"layer":"grocery_point","name":"Mariano's Fresh Market"}},{"type":"Feature","geometry":{"type":"Point","coordinates":[-87.67447464174309,41.927268528716205]},"properties":{"layer":"grocery_point","name":"Jewel-Osco"}},{"type":"Feature","geometry":{"type":"Point","coordinates":[-87.6469207487158,41.882311831916816]},"properties":{"layer":"grocery_point","name":"Whole Foods Market"}},{"type":"Feature","geometry":{"type":"Point","coordinates":[-87.67461418629071,42.01758411254542]},"properties":{"layer":"grocery_point","name":"Jewel-Osco"}},{"type":"Feature","geometry":{"type":"Point","coordinates":[-87.65970059333105,41.99113769754881]},"properties":{"layer":"grocery_point","name":"Whole Foods Market"}},{"type":"Feature","geometry":{"type":"Point","coordinates":[-87.63988004913057,41.86411456644873]},"properties":{"layer":"grocery_point","name":"Jewel-Osco"}},{"type":"Feature","geometry":{"type":"Point","coordinates":[-87.78877572389237,41.99603833742635]},"properties":{"layer":"grocery_point","name":"Shop & Save Market"}},{"type":"Feature","geometry":{"type":"Point","coordinates":[-87.6636653032978,41.836020712653294]},"properties":{"layer":"grocery_point","name":"Mariano's Fresh Market"}},{"type":"Feature","geometry":{"type":"Point","coordinates":[-87.78254175916672,41.88780487304317]},"properties":{"layer":"grocery_point","name":"Pete's Market"}},{"type":"Feature","geometry":{"type":"Point","coordinates":[-87.70227288092347,42.06788948194722]},"properties":{"layer":"grocery_point","name":"Whole Foods Market"}},{"type":"Feature","geometry":{"type":"Point","coordinates":[-87.62627018898294,41.86629785616221]},"properties":{"layer":"grocery_point","name":"Jewel-Osco"}},{"type":"Feature","geometry":{"type":"Point","coordinates":[-87.64507919219334,41.88869358994955]},"properties":{"layer":"grocery_point","name":"Jewel-Osco"}},{"type":"Feature","geometry":{"type":"Point","coordinates":[-87.6899754604355,41.94239090185628]},"properties":{"layer":"grocery_point","name":"Mariano's Fresh Market"}},{"type":"Feature","geometry":{"type":"Point","coordinates":[-87.6900439917103,41.94354168430559]},"properties":{"layer":"grocery_point","name":"Jewel-Osco"}},{"type":"Feature","geometry":{"type":"Point","coordinates":[-87.59812259280645,41.81643758291357]},"properties":{"layer":"grocery_point","name":"One Stop Foods"}},{"type":"Feature","geometry":{"type":"Point","coordinates":[-87.64471053614794,41.87761090085922]},"properties":{"layer":"grocery_point","name":"H Mart"}},{"type":"Feature","geometry":{"type":"Point","coordinates":[-87.7290400187518,42.02659325558201]},"properties":{"layer":"grocery_point","name":"Sarah's Tent"}},{"type":"Feature","geometry":{"type":"Point","coordinates":[-87.73405103252863,41.77827151182609]},"properties":{"layer":"grocery_point","name":"Save-A-Lot"}},{"type":"Feature","geometry":{"type":"Point","coordinates":[-87.72874884858629,41.92866544573831]},"properties":{"layer":"grocery_point","name":"Aldi"}},{"type":"Feature","geometry":{"type":"Point","coordinates":[-87.74269255903472,41.940284507672565]},"properties":{"layer":"grocery_point","name":"Tony's Fresh Market"}},{"type":"Feature","geometry":{"type":"Point","coordinates":[-87.74491805344367,41.95551642331425]},"properties":{"layer":"grocery_point","name":"Jewel-Osco"}},{"type":"Feature","geometry":{"type":"Point","coordinates":[-87.72780647101193,41.97285676243916]},"properties":{"layer":"grocery_point","name":"Aldi"}},{"type":"Feature","geometry":{"type":"Point","coordinates":[-87.7300517017564,41.976277760680745]},"properties":{"layer":"grocery_point","name":"Jewel-Osco"}},{"type":"Feature","geometry":{"type":"Point","coordinates":[-87.75922554222063,41.795659502555445]},"properties":{"layer":"grocery_point","name":"Shop & Save Market"}},{"type":"Feature","geometry":{"type":"Point","coordinates":[-87.76491358136964,41.86723625117249]},"properties":{"layer":"grocery_point","name":"Aldi"}},{"type":"Feature","geometry":{"type":"Point","coordinates":[-87.76393664114222,41.87992638024927]},"properties":{"layer":"grocery_point","name":"Leamington Foods"}},{"type":"Feature","geometry":{"type":"Point","coordinates":[-87.7667129370456,41.96693774664709]},"properties":{"layer":"grocery_point","name":"Jewel-Osco"}},{"type":"Feature","geometry":{"type":"Point","coordinates":[-87.72241756552363,41.81383384384691]},"properties":{"layer":"grocery_point","name":"Pete's Market"}},{"type":"Feature","geometry":{"type":"Point","coordinates":[-87.72328016031292,41.810089466626025]},"properties":{"layer":"grocery_point","name":"Aldi"}},{"type":"Feature","geometry":{"type":"Point","coordinates":[-87.70563943026458,41.83824466628036]},"properties":{"layer":"grocery_point","name":"Aldi"}},{"type":"Feature","geometry":{"type":"Point","coordinates":[-87.72419204999998,41.84326645]},"properties":{"layer":"grocery_point","name":"Supermercado La Chiquita"}},{"type":"Feature","geometry":{"type":"Point","coordinates":[-87.7082360272827,41.8438516210716]},"properties":{"layer":"grocery_point","name":"Cermak Fresh Market"}},{"type":"Feature","geometry":{"type":"Point","coordinates":[-87.71459395519197,41.844126162246226]},"properties":{"layer":"grocery_point","name":"Supermercado La Chiquita"}},{"type":"Feature","geometry":{"type":"Point","coordinates":[-87.70723672095572,41.8676842578893]},"properties":{"layer":"grocery_point","name":"Freshway Market"}},{"type":"Feature","geometry":{"type":"Point","coordinates":[-87.72627411620152,41.87460334420278]},"properties":{"layer":"grocery_point","name":"Save-A-Lot"}},{"type":"Feature","geometry":{"type":"Point","coordinates":[-87.71489563737688,41.90206359431266]},"properties":{"layer":"grocery_point","name":"Central Park Fresh Market"}},{"type":"Feature","geometry":{"type":"Point","coordinates":[-87.7155742410251,41.91754960373738]},"properties":{"layer":"grocery_point","name":"Rico Fresh Market"}},{"type":"Feature","geometry":{"type":"Point","coordinates":[-87.7114933721432,41.917641985921136]},"properties":{"layer":"grocery_point","name":"Armitage Produce"}},{"type":"Feature","geometry":{"type":"Point","coordinates":[-87.7184229,41.93947214999999]},"properties":{"layer":"grocery_point","name":"Los Potrillos Food Market"}},{"type":"Feature","geometry":{"type":"Point","coordinates":[-87.7198538103316,41.93222274004675]},"properties":{"layer":"grocery_point","name":"nan"}},{"type":"Feature","geometry":{"type":"Point","coordinates":[-87.72217358581587,41.92484476862335]},"properties":{"layer":"grocery_point","name":"Plaza Jiminez"}},{"type":"Feature","geometry":{"type":"Point","coordinates":[-87.72353692118789,41.92482878647837]},"properties":{"layer":"grocery_point","name":"Carniceria Jimenez"}},{"type":"Feature","geometry":{"type":"Point","coordinates":[-87.71743255242264,41.92429717317632]},"properties":{"layer":"grocery_point","name":"Tony's Fresh Market"}},{"type":"Feature","geometry":{"type":"Point","coordinates":[-87.71204658971308,41.94173670627259]},"properties":{"layer":"grocery_point","name":"Joong Boo Market"}},{"type":"Feature","geometry":{"type":"Point","coordinates":[-87.708446571205,41.94510934058526]},"properties":{"layer":"grocery_point","name":"Jewel-Osco"}},{"type":"Feature","geometry":{"type":"Point","coordinates":[-87.72203031505941,41.95603411640753]},"properties":{"layer":"grocery_point","name":"Tony's Fresh Market"}},{"type":"Feature","geometry":{"type":"Point","coordinates":[-87.708520219218,41.95849990549256]},"properties":{"layer":"grocery_point","name":"Cermak Fresh Market"}},{"type":"Feature","geometry":{"type":"Point","coordinates":[-87.70377370073969,41.78884050344359]},"properties":{"layer":"grocery_point","name":"Pete's Market"}},{"type":"Feature","geometry":{"type":"Point","coordinates":[-87.70404211080454,41.81833900216961]},"properties":{"layer":"grocery_point","name":"La Gloria Supermarket"}},{"type":"Feature","geometry":{"type":"Point","coordinates":[-87.69410822537897,41.819933257496565]},"properties":{"layer":"grocery_point","name":"Supermercado El Guero"}},{"type":"Feature","geometry":{"type":"Point","coordinates":[-87.68929431547217,41.853278181392774]},"properties":{"layer":"grocery_point","name":"Pete's Market"}},{"type":"Feature","geometry":{"type":"Point","coordinates":[-87.7045652024655,42.02758881712498]},"properties":{"layer":"grocery_point","name":"Aldi"}},{"type":"Feature","geometry":{"type":"Point","coordinates":[-87.65287837785738,41.90872759024384]},"properties":{"layer":"grocery_point","name":"Whole Foods Market"}},{"type":"Feature","geometry":{"type":"Point","coordinates":[-87.70112598248873,42.08659329123869]},"properties":{"layer":"grocery_point","name":"Jewel-Osco"}},{"type":"Feature","geometry":{"type":"Point","coordinates":[-87.67960314933373,42.04758512399097]},"properties":{"layer":"grocery_point","name":"Whole Foods Market"}},{"type":"Feature","geometry":{"type":"Point","coordinates":[-87.81765531691967,41.861762727079984]},"properties":{"layer":"grocery_point","name":"Walmart Supercenter"}},{"type":"Feature","geometry":{"type":"Point","coordinates":[-87.78724645612638,41.96765981106531]},"properties":{"layer":"grocery_point","name":"Butera Market"}},{"type":"Feature","geometry":{"type":"Point","coordinates":[-87.69963116048918,41.91716089427906]},"properties":{"layer":"grocery_point","name":"FoodSmart"}},{"type":"Feature","geometry":{"type":"Point","coordinates":[-87.68802094632,41.921112447052835]},"properties":{"layer":"grocery_point","name":"Agora Market"}},{"type":"Feature","geometry":{"type":"Point","coordinates":[-87.69491635852383,41.90991936695252]},"properties":{"layer":"grocery_point","name":"Cermak Produce"}},{"type":"Feature","geometry":{"type":"Point","coordinates":[-87.6898595666157,41.96106371541046]},"properties":{"layer":"grocery_point","name":"Aldi"}},{"type":"Feature","geometry":{"type":"Point","coordinates":[-87.68243426398065,41.958495921151915]},"properties":{"layer":"grocery_point","name":"Jewel-Osco"}},{"type":"Feature","geometry":{"type":"Point","coordinates":[-87.69200028843163,41.976931679737696]},"properties":{"layer":"grocery_point","name":"Tony's Fresh Market"}},{"type":"Feature","geometry":{"type":"Point","coordinates":[-87.69172282349598,41.997962775369494]},"properties":{"layer":"grocery_point","name":"World Fresh Market"}},{"type":"Feature","geometry":{"type":"Point","coordinates":[-87.66448851212034,41.76549283365917]},"properties":{"layer":"grocery_point","name":"Food 4 Less"}},{"type":"Feature","geometry":{"type":"Point","coordinates":[-87.6830213587477,41.78380545399793]},"properties":{"layer":"grocery_point","name":"Aldi"}},{"type":"Feature","geometry":{"type":"Point","coordinates":[-87.66759825,41.80832060000001]},"properties":{"layer":"grocery_point","name":"Supermercado El Gurero"}},{"type":"Feature","geometry":{"type":"Point","coordinates":[-87.66290261017129,41.809371296240364]},"properties":{"layer":"grocery_point","name":"Aldi"}},{"type":"Feature","geometry":{"type":"Point","coordinates":[-87.68275424455798,41.82779011011356]},"properties":{"layer":"grocery_point","name":"Jewel-Osco"}},{"type":"Feature","geometry":{"type":"Point","coordinates":[-87.66913198286531,41.85174686225559]},"properties":{"layer":"grocery_point","name":"Cermak Fresh Market"}},{"type":"Feature","geometry":{"type":"Point","coordinates":[-87.6701669549834,41.85159825157837]},"properties":{"layer":"grocery_point","name":"Aldi"}},{"type":"Feature","geometry":{"type":"Point","coordinates":[-87.67913441384441,41.8518751584692]},"properties":{"layer":"grocery_point","name":"Supermercado El G\u00fcero #8"}},{"type":"Feature","geometry":{"type":"Point","coordinates":[-87.67482264913599,41.928602880999456]},"properties":{"layer":"grocery_point","name":"Aldi"}},{"type":"Feature","geometry":{"type":"Point","coordinates":[-87.66820079383005,41.98213151098923]},"properties":{"layer":"grocery_point","name":"Edgewater Produce"}},{"type":"Feature","geometry":{"type":"Point","coordinates":[-87.66717187782089,41.99837124214795]},"properties":{"layer":"grocery_point","name":"Devon Market"}},{"type":"Feature","geometry":{"type":"Point","coordinates":[-87.67419407702346,42.01200257194501]},"properties":{"layer":"grocery_point","name":"Supermercado Chapala"}},{"type":"Feature","geometry":{"type":"Point","coordinates":[-87.66439579376116,41.94816152190069]},"properties":{"layer":"grocery_point","name":"Jewel-Osco"}},{"type":"Feature","geometry":{"type":"Point","coordinates":[-87.72336599054788,41.7865712252032]},"properties":{"layer":"grocery_point","name":"Pete's Market"}},{"type":"Feature","geometry":{"type":"Point","coordinates":[-87.64597425031407,41.83891089309808]},"properties":{"layer":"grocery_point","name":"Cermak Fresh Market"}},{"type":"Feature","geometry":{"type":"Point","coordinates":[-87.64128010647057,41.85444105773727]},"properties":{"layer":"grocery_point","name":"88 Marketplace"}},{"type":"Feature","geometry":{"type":"Point","coordinates":[-87.64757009897839,41.88026077174759]},"properties":{"layer":"grocery_point","name":"Wild Fork"}},{"type":"Feature","geometry":{"type":"Point","coordinates":[-87.64617394811194,41.94687175963328]},"properties":{"layer":"grocery_point","name":"Jewel-Osco"}},{"type":"Feature","geometry":{"type":"Point","coordinates":[-87.64047398602021,41.78042496670125]},"properties":{"layer":"grocery_point","name":"Aldi"}},{"type":"Feature","geometry":{"type":"Point","coordinates":[-87.63836019664708,41.85654321586905]},"properties":{"layer":"grocery_point","name":"Park To Shop Supermarket"}},{"type":"Feature","geometry":{"type":"Point","coordinates":[-87.63944490815905,41.905143964822535]},"properties":{"layer":"grocery_point","name":"Jewel-Osco"}},{"type":"Feature","geometry":{"type":"Point","coordinates":[-87.60542071799358,41.77454335537915]},"properties":{"layer":"grocery_point","name":"Aldi"}},{"type":"Feature","geometry":{"type":"Point","coordinates":[-87.61405245159234,41.77958305936832]},"properties":{"layer":"grocery_point","name":"Woodlawn Fresh Market"}},{"type":"Feature","geometry":{"type":"Point","coordinates":[-87.65440709412533,41.976925280852285]},"properties":{"layer":"grocery_point","name":"Mariano's Fresh Market"}},{"type":"Feature","geometry":{"type":"Point","coordinates":[-87.63244279109199,41.739324601131905]},"properties":{"layer":"grocery_point","name":"Aldi"}},{"type":"Feature","geometry":{"type":"Point","coordinates":[-87.64792640990493,41.88094932779219]},"properties":{"layer":"grocery_point","name":"Mariano's Fresh Market"}},{"type":"Feature","geometry":{"type":"Point","coordinates":[-87.73662147641406,41.90722931932489]},"properties":{"layer":"grocery_point","name":"Aldi"}},{"type":"Feature","geometry":{"type":"Point","coordinates":[-87.68007053754992,42.039800012196565]},"properties":{"layer":"grocery_point","name":"Trader Joe's"}},{"type":"Feature","geometry":{"type":"Point","coordinates":[-87.74312922252727,41.76691493093498]},"properties":{"layer":"grocery_point","name":"Aldi"}},{"type":"Feature","geometry":{"type":"Point","coordinates":[-87.74552615562395,41.765542444303904]},"properties":{"layer":"grocery_point","name":"Walmart Supercenter"}},{"type":"Feature","geometry":{"type":"Point","coordinates":[-87.64627018167945,41.932432293270246]},"properties":{"layer":"grocery_point","name":"Trader Joe's"}},{"type":"Feature","geometry":{"type":"Point","coordinates":[-87.70635656703612,42.07259386625369]},"properties":{"layer":"grocery_point","name":"Jewel-Osco"}},{"type":"Feature","geometry":{"type":"Point","coordinates":[-87.81339909901114,41.88783523146212]},"properties":{"layer":"grocery_point","name":"Jewel-Osco"}},{"type":"Feature","geometry":{"type":"Point","coordinates":[-87.75744884299993,41.97953552890932]},"properties":{"layer":"grocery_point","name":"Mariano's Fresh Market"}},{"type":"Feature","geometry":{"type":"Point","coordinates":[-87.81129152879085,41.868751366380295]},"properties":{"layer":"grocery_point","name":"nan"}},{"type":"Feature","geometry":{"type":"Point","coordinates":[-87.66912246536418,41.92094300627103]},"properties":{"layer":"grocery_point","name":"Mariano's Fresh Market"}},{"type":"Feature","geometry":{"type":"Point","coordinates":[-87.62950796818292,41.85933347921598]},"properties":{"layer":"grocery_point","name":"Mariano's Fresh Market"}},{"type":"Feature","geometry":{"type":"Point","coordinates":[-87.6680059701324,41.940173960591125]},"properties":{"layer":"grocery_point","name":"Whole Foods Market"}},{"type":"Feature","geometry":{"type":"Point","coordinates":[-87.74726060186256,41.83098151850274]},"properties":{"layer":"grocery_point","name":"Walmart Supercenter"}},{"type":"Feature","geometry":{"type":"Point","coordinates":[-87.62442938381109,41.76039768796705]},"properties":{"layer":"grocery_point","name":"Aldi"}},{"type":"Feature","geometry":{"type":"Point","coordinates":[-87.81282528568887,41.96549415015632]},"properties":{"layer":"grocery_point","name":"Mariano's Fresh Market"}},{"type":"Feature","geometry":{"type":"Point","coordinates":[-87.74294911955343,41.93470617429126]},"properties":{"layer":"grocery_point","name":"Walmart Supercenter"}},{"type":"Feature","geometry":{"type":"Point","coordinates":[-87.64638563600971,41.78069072527428]},"properties":{"layer":"grocery_point","name":"Save-A-Lot"}},{"type":"Feature","geometry":{"type":"Point","coordinates":[-87.6159401026955,41.824289660753486]},"properties":{"layer":"grocery_point","name":"Mariano's Fresh Market"}},{"type":"Feature","geometry":{"type":"Point","coordinates":[-87.78633660540986,41.88022487149531]},"properties":{"layer":"grocery_point","name":"Jewel-Osco"}},{"type":"Feature","geometry":{"type":"Point","coordinates":[-87.80060960897418,41.86532132321517]},"properties":{"layer":"grocery_point","name":"Jewel-Osco"}},{"type":"Feature","geometry":{"type":"Point","coordinates":[-87.74048456418032,41.85169547127963]},"properties":{"layer":"grocery_point","name":"Aldi"}},{"type":"Feature","geometry":{"type":"Point","coordinates":[-87.63745867773528,41.85717823429166]},"properties":{"layer":"grocery_point","name":"Chicago Oriental Wholesale Market"}},{"type":"Feature","geometry":{"type":"Point","coordinates":[-87.74795210248944,41.85160312489753]},"properties":{"layer":"grocery_point","name":"Supermercado La Chiquita"}},{"type":"Feature","geometry":{"type":"Point","coordinates":[-87.60732185064788,41.78448896165431]},"properties":{"layer":"grocery_point","name":"Jewel-Osco"}},{"type":"Feature","geometry":{"type":"Point","coordinates":[-87.77972488167705,42.04125585429536]},"properties":{"layer":"grocery_point","name":"Richwell Market"}},{"type":"Feature","geometry":{"type":"Point","coordinates":[-87.77083074385133,42.013205261040156]},"properties":{"layer":"grocery_point","name":"Fresh Farms"}},{"type":"Feature","geometry":{"type":"Point","coordinates":[-87.74859393008458,42.02489918029791]},"properties":{"layer":"grocery_point","name":"Aldi"}},{"type":"Feature","geometry":{"type":"Point","coordinates":[-87.77927824463984,41.843712143177015]},"properties":{"layer":"grocery_point","name":"Torres Fresh Market"}},{"type":"Feature","geometry":{"type":"Point","coordinates":[-87.62785371999526,41.73521947320572]},"properties":{"layer":"grocery_point","name":"Jewel-Osco"}},{"type":"Feature","geometry":{"type":"Point","coordinates":[-87.75704461018371,41.84587803778]},"properties":{"layer":"grocery_point","name":"Torres Supermercado"}},{"type":"Feature","geometry":{"type":"Point","coordinates":[-87.80893660634084,41.96067374867418]},"properties":{"layer":"grocery_point","name":"Angelo Caputo's Fresh Markets"}},{"type":"Feature","geometry":{"type":"Point","coordinates":[-87.75985075688237,42.034235623173515]},"properties":{"layer":"grocery_point","name":"Skokie International Market"}},{"type":"Feature","geometry":{"type":"Point","coordinates":[-87.79367925875523,41.873388921063174]},"properties":{"layer":"grocery_point","name":"Carnival Grocery"}},{"type":"Feature","geometry":{"type":"Point","coordinates":[-87.68317927643326,42.05875349094562]},"properties":{"layer":"grocery_point","name":"D&D Finer Foods"}},{"type":"Feature","geometry":{"type":"Point","coordinates":[-87.654770703084,41.95396600912038]},"properties":{"layer":"grocery_point","name":"Alta Vista Foods"}},{"type":"Feature","geometry":{"type":"Point","coordinates":[-87.63313395254445,41.86779341758792]},"properties":{"layer":"grocery_point","name":"nan"}}]}