{"type":"FeatureCollection","features":[{"type":"Feature","geometry":{"type":"MultiPolygon","coordinates":[[[[-87.7192584383848,41.76992058781101],[-87.72153336562832,41.768635250177546],[-87.72396553982587,41.76752298319238],[-87.72653155018796,41.76659448938405],[-87.72920670159695,41.76585870249563],[-87.73196525178308,41.76532270176066],[-87.7347806584343,41.764991643986896],[-87.73762583389102,41.764868714091584],[-87.74047340500816,41.76495509455746],[-87.74329597572051,41.765249954098365],[-87.74606638982313,41.765750455641886],[-87.74875799147617,41.76645178355281],[-87.75134488096523,41.76734718983908],[-87.75380216328988,41.76842805890179],[-87.75610618721875,41.769683990214794],[-87.75823477253577,41.77110289814869],[-87.76016742330927,41.77267112799088],[-87.76188552514304,41.77437358705869],[-87.76337252451519,41.776193889657456],[-87.76461408847483,41.77811451450298],[-87.76559824314833,41.780116973106544],[-87.76631548970322,41.782181987514825],[-87.7667588966279,41.78428967570465],[-87.76692416740839,41.78641974285764],[-87.76680968291431,41.78855167668019],[-87.7664165180479,41.79066494489289],[-87.76574843245474,41.7927391929895],[-87.7648118353449,41.79475444036044],[-87.76361572472382,41.79669127288807],[-87.76217160158124,41.79853103015242],[-87.76049335983198,41.800255985435605],[-87.7585971530415,41.8018495167799],[-87.75650123919898,41.803296267439116],[-87.75422580501967,41.80458229416362],[-87.7525439682942,41.805351602244784],[-87.75237092034246,41.80588838987542],[-87.75143371699745,41.80790352860764],[-87.75023696264198,41.80984022273873],[-87.74879216446384,41.8116798131732],[-87.74711322288196,41.81340457479213],[-87.74521629820913,41.81499788749612],[-87.74311965535979,41.81644439663899],[-87.74084348808535,41.81773016129286],[-87.73840972442419,41.81884278890151],[-87.73584181524262,41.819771555010206],[-87.7331645079143,41.82050750690391],[-87.73040360733549,41.82104355014238],[-87.72758572660335,41.821374517146154],[-87.72473802978908,41.821497217163305],[-87.72215904243873,41.821418721095725],[-87.72075206875168,41.82221304188486],[-87.71831778260821,41.82332524698459],[-87.71574939856737,41.82425356685751],[-87.71307166859641,41.82498905309155],[-87.7103104016805,41.82552461573822],[-87.70923468947042,41.825650768211474],[-87.70952734806252,41.82704692394963],[-87.70969085378067,41.82917707163907],[-87.70957441433437,41.831308948059664],[-87.70936090312583,41.832450313782466],[-87.70958762869147,41.83247403684163],[-87.71175184055738,41.83222024013752],[-87.71460004164473,41.83209785841348],[-87.71745056908996,41.83218478549378],[-87.71912160654477,41.83235950161933],[-87.72121766266473,41.832113519493376],[-87.72406583768355,41.83199090321295],[-87.7269163698654,41.83207759530626],[-87.72888253829304,41.83228300153127],[-87.73016165369397,41.83213278448772],[-87.73300980933124,41.83200994654548],[-87.73338194657146,41.83202123920546],[-87.73397843673321,41.8318055632557],[-87.73665620338707,41.831069590123526],[-87.73941747925102,41.83053339446917],[-87.74223569583901,41.830202134962576],[-87.74508373851465,41.83007899845275],[-87.7479342066098,41.83016516940552],[-87.75075967625158,41.83045981855036],[-87.75085592263731,41.83047718235211],[-87.75358789095311,41.83015578266952],[-87.75643590567394,41.83003236485854],[-87.75928638276207,41.83011825396779],[-87.76211189825884,41.83041262343492],[-87.7648852676927,41.830912640903854],[-87.76757980685292,41.831613495402856],[-87.77016958781948,41.83250844350574],[-87.77262968782011,41.83358887403743],[-87.77493642854994,41.83484439071064],[-87.77706760367607,41.83626291190839],[-87.77900269235644,41.837830786664746],[-87.78072305672949,41.839532925740905],[-87.78221212147852,41.84135294654929],[-87.7834555337386,41.84327333054506],[-87.78444130179534,41.84527559158381],[-87.78515991122218,41.84734045363783],[-87.78560441731254,41.84944803617156],[-87.78565995024857,41.85016020779783],[-87.78741918639255,41.85061729696768],[-87.78848505428003,41.850491601297485],[-87.79133388998267,41.85036731139765],[-87.79418530348313,41.85045232589966],[-87.79701186183577,41.8507458266459],[-87.79978637056313,41.8512449896303],[-87.80248213452442,41.85194501209681],[-87.80267478681094,41.85201149668393],[-87.80383881378437,41.851874069102784],[-87.80668767509525,41.851749398093354],[-87.80953916434352,41.85183403064854],[-87.81236584785712,41.8521271522808],[-87.81502366001831,41.852604935032005],[-87.81704115987844,41.85251645681167],[-87.81989269276407,41.85260083186235],[-87.82271945329441,41.852893697897784],[-87.82549424505495,41.85339223701133],[-87.82819037019406,41.85409165244306],[-87.83078188558194,41.8549852146049],[-87.83324385181179,41.85606432565397],[-87.83555257267696,41.857318602001236],[-87.83768582284529,41.858735973972166],[-87.83962306155803,41.86030280167262],[-87.84134563030901,41.862004005958035],[-87.8428369326053,41.86382321325998],[-87.84408259407599,41.865742912890155],[-87.84507060137656,41.86774462532158],[-87.84579141853317,41.86980907984009],[-87.84623807958167,41.871916399867494],[-87.84640625657855,41.874046294181674],[-87.84629430229316,41.876178252200006],[-87.84590326713158,41.878291741450454],[-87.84523689008817,41.880366405330946],[-87.84430156377114,41.88238225925174],[-87.84310627379888,41.88431988326802],[-87.8416625131139,41.88616060934134],[-87.83998417200674,41.88788670141719],[-87.83808740488145,41.8894815265732],[-87.83599047502524,41.89092971557677],[-87.83371357886365,41.8922173112914],[-87.83127865138823,41.89333190348733],[-87.8308556338695,41.89348515479565],[-87.83016314995955,41.8949765331391],[-87.82896720161952,41.89691401173792],[-87.82752275425236,41.89875456223835],[-87.82584370476587,41.900480450268965],[-87.82394621439475,41.90207504486572],[-87.82184855340402,41.903522979010944],[-87.81957092527658,41.904810298018575],[-87.81713527207226,41.905924594321355],[-87.81456506283575,41.90685512734672],[-87.8118850671015,41.90759292731223],[-87.80912111569529,41.90813088192686],[-87.80629985116124,41.90846380515103],[-87.80344847024894,41.90858848734304],[-87.80059446097638,41.908503726301014],[-87.79908352065459,41.908347046950865],[-87.79690369432875,41.90860408754119],[-87.79405228528388,41.90872853660376],[-87.79119827860225,41.90864354195687],[-87.789443146805,41.90846139288002],[-87.78677829344565,41.90877539111374],[-87.78392685327513,41.908899588955514],[-87.78107284857441,41.90881434258256],[-87.77947147379714,41.90864800819695],[-87.77724909123997,41.90890967630708],[-87.77439762305562,41.909033637705775],[-87.77154362150105,41.90894815441924],[-87.77032706100005,41.908821690085084],[-87.76876123762129,41.90900592992811],[-87.76590974558968,41.909129680710095],[-87.76305574794509,41.90904398639188],[-87.7602267580703,41.90874967285319],[-87.75948695795257,41.90861643947964],[-87.75809363252014,41.90878024944416],[-87.75524212602451,41.908903735397296],[-87.7523881488317,41.90881777572341],[-87.74955921412639,41.90852319886349],[-87.74748876103223,41.9081501048394],[-87.74495063035394,41.908259789059095],[-87.74209669196794,41.9081735732314],[-87.73926782941473,41.90787874217426],[-87.73649131309266,41.90737813787697],[-87.73379390732467,41.906676585934385],[-87.732947555062,41.90638414818758],[-87.7313232052073,41.906699122022005],[-87.72850157198864,41.90703013648425],[-87.72565007588518,41.907152887418626],[-87.72279620603237,41.90706619126434],[-87.71996747457634,41.906770883571056],[-87.71878815576203,41.9065580485752],[-87.71751644019321,41.9066126944656],[-87.71923805243611,41.90800797066086],[-87.7209587530985,41.90971098203749],[-87.72139302354536,41.91024201444875],[-87.72204918136106,41.910468801593396],[-87.72451149565741,41.91155023109752],[-87.72682013524648,41.91280668255165],[-87.72895287549467,41.91422606537131],[-87.73088918045002,41.9157947203239],[-87.73261040047902,41.917497550683045],[-87.73409995194639,41.919318167223885],[-87.73534347720513,41.921239045677744],[-87.73632898334509,41.92324169514433],[-87.73704695834574,41.92530683585367],[-87.73742844706025,41.927119861606734],[-87.73792065468466,41.9277213106958],[-87.73916446077797,41.9296421427473],[-87.74015021907712,41.93164475450521],[-87.74052698355473,41.932728126561784],[-87.7408988164667,41.933029196014026],[-87.74273571892165,41.93366345570773],[-87.74519927380669,41.93474442723421],[-87.7475091562289,41.9360004476296],[-87.74964312961653,41.93741943046535],[-87.75158064616753,41.93898772036784],[-87.7533030445993,41.940690224135615],[-87.75370206070376,41.941177489836626],[-87.75448409443317,41.94138062583053],[-87.75707815694184,41.94227581722045],[-87.75954228319945,41.94335647466999],[-87.76185275619042,41.94461219974473],[-87.7639873336737,41.946030908860735],[-87.76592546204596,41.94759894928266],[-87.7676484741467,41.949301230215376],[-87.76785148489155,41.949549013805644],[-87.76909851794112,41.94977334536478],[-87.7717981215131,41.95047404430242],[-87.77439279098833,41.951368837962946],[-87.77685755662839,41.952449116690026],[-87.77916869528238,41.95370448569479],[-87.78130395831995,41.955122864822634],[-87.78324278555523,41.95669060451837],[-87.78496650311463,41.95839261688699],[-87.7864585033482,41.96021252060325],[-87.78770440504938,41.96213279828935],[-87.78869219242958,41.964134964859916],[-87.78939587290017,41.96615255679119],[-87.790207484907,41.96559331070893],[-87.79248785749449,41.96430656403647],[-87.79492615461862,41.96319277898321],[-87.79749890657997,41.96226267261712],[-87.80018135344636,41.96152519413184],[-87.80294768284861,41.96098743897686],[-87.80577127775946,41.96065458078798],[-87.8086249719,41.960529821763174],[-87.81148131034982,41.96061436195426],[-87.81431281288971,41.960907387765324],[-87.81709223758173,41.96140607976603],[-87.81979284208889,41.96210563974593],[-87.82238864025761,41.96299933675279],[-87.82485465152874,41.96407857167777],[-87.82574036047376,41.96455902760383],[-87.8266174751981,41.96424165677129],[-87.82929965799165,41.96350350039437],[-87.83206581655709,41.962965045179494],[-87.8348893354996,41.96263147149034],[-87.83774304926484,41.9625059884003],[-87.84059950274235,41.962589802918586],[-87.84343121461015,41.96288210842219],[-87.84621094092518,41.963380092402694],[-87.84743833673674,41.96369768564291],[-87.84797096217595,41.96350483737587],[-87.85065285949538,41.96276618453398],[-87.85341879796897,41.96222721667071],[-87.85624216430945,41.96189311907689],[-87.85909579442402,41.96176710586045],[-87.86195223400394,41.961850389124564],[-87.86478400186161,41.96214216735088],[-87.86756385351973,41.96263963309776],[-87.8702650425548,41.96333799993997],[-87.87286157721803,41.96423054839447],[-87.87532846989885,41.96530869039611],[-87.87764197706116,41.96656205171161],[-87.87867696416642,41.96724783752736],[-87.87983204799875,41.96577554500514],[-87.88151131202227,41.96404888446591],[-87.88340916379795,41.96245335173811],[-87.8855073223165,41.961004302465994],[-87.88778558297882,41.959715681485164],[-87.89022201210655,41.958599888921476],[-87.89279315789709,41.95766766115459],[-87.89547427580302,41.95692796777787],[-87.89823956618292,41.956387925533406],[-87.90106242196032,41.95605273003874],[-87.90391568393652,41.95592560595277],[-87.906771901334,41.956007776053085],[-87.90960359509998,41.95629844951728],[-87.91238352147514,41.95679482951911],[-87.9150849333301,41.957492140067],[-87.9176818367927,41.95838367183005],[-87.92014924073084,41.95946084651691],[-87.92246339672181,41.96071329919615],[-87.92460202722343,41.96212897777698],[-87.92654453977083,41.963694258704855],[-87.92827222514921,41.965394077772274],[-87.9297684376399,41.96721207479978],[-87.9310187556011,41.96913075080923],[-87.93201112082694,41.97113163619004],[-87.93273595532446,41.97319546825305],[-87.9331862543591,41.975302376473984],[-87.9333576548422,41.97743207365305],[-87.93324847836584,41.97956405115737],[-87.93285974843215,41.981677776371384],[-87.93219518166974,41.98375289045595],[-87.93126115308098,41.98576940451076],[-87.93006663561455,41.98770789224762],[-87.928623114608,41.989549677312354],[-87.92694447789127,41.99127701344236],[-87.92504688258167,41.99287325571354],[-87.9229485998326,41.994323021214306],[-87.92066983901718,41.995612337584774],[-87.91823255303441,41.99672877797564],[-87.91566022661523,41.99766158111162],[-87.912977649678,41.99840175528821],[-87.91021067793388,41.99894216528643],[-87.90738598307327,41.99927760135618],[-87.9045307949698,41.99940482959336],[-87.90167263842106,41.99932262321793],[-87.8988390670004,41.999031774446294],[-87.89605739662439,41.9985350868417],[-87.89335444144338,41.997837348216734],[-87.89075625463875,41.996945284353046],[-87.88828787666066,41.995867493990374],[-87.88597309336363,41.9946143657202],[-87.88493758074166,41.99392865391229],[-87.88378211755429,41.9954009943824],[-87.88210210589824,41.99712768605401],[-87.8802032058761,41.998723197718135],[-87.87810370125241,42.00017215349418],[-87.87582381321559,42.001460588819945],[-87.87338550556841,42.00257608533551],[-87.87081227292721,42.00350789086461],[-87.86812891398046,42.00424702332351],[-87.86536129200796,42.00478635754264],[-87.86253608499295,42.005120694152346],[-87.85968052776437,42.00524680985941],[-87.85682214868893,42.00516348862198],[-87.85398850348797,42.00487153341773],[-87.85120690878412,42.00437375848948],[-87.84997871000049,42.004056215119924],[-87.84944575466864,42.004249074395304],[-87.84676210916395,42.004987709791614],[-87.84399426625868,42.0055265306707],[-87.84116890607594,42.0058603426166],[-87.83831326492792,42.00598592739989],[-87.83545487199336,42.005902074103275],[-87.83262128312656,42.00560959084005],[-87.82983981440262,42.00511129694981],[-87.8271372780069,42.00441199574782],[-87.82453972305203,42.00351842809409],[-87.82207218385624,42.002439207236016],[-87.82118597229733,42.00195873056876],[-87.82030831505145,42.002276062656456],[-87.81762440421949,42.00301401929675],[-87.81485638958765,42.003552139135586],[-87.81203095294566,42.00388523452257],[-87.80917533134918,42.00401009414434],[-87.80631705378974,42.00392551408318],[-87.80348367500545,42.0036323094672],[-87.80070250903735,42.00313330659811],[-87.79800036513872,42.00243331563285],[-87.79540328862107,42.00153908408624],[-87.79293630916983,42.00045923160913],[-87.79062319908637,41.99920416667933],[-87.7884862438121,41.99778598601917],[-87.78654602696503,41.99621835772165],[-87.78482123197209,41.994516389225204],[-87.78332846221298,41.99269648142367],[-87.78208208140438,41.9907761703319],[-87.78109407575072,41.98877395784663],[-87.78039039664446,41.98675632281866],[-87.77957843172157,41.987315500432985],[-87.77729698131907,41.9886019946247],[-87.77485740851165,41.989715411031916],[-87.77228322018505,41.99064501753923],[-87.76959922430267,41.99138185327728],[-87.76683129033292,41.99191881523877],[-87.76400609929946,41.99225072694908],[-87.76115088589292,41.992374388520375],[-87.75829317516359,41.992288607599214],[-87.75546051637053,41.99199421090435],[-87.7526802165914,41.99149403624187],[-87.74997907669996,41.99079290507507],[-87.74738313229427,41.98989757591746],[-87.74491740210759,41.98881667900428],[-87.74260564635779,41.98756063288092],[-87.74047013738982,41.9861415437233],[-87.73853144484046,41.984573088372656],[-87.73680823740735,41.98287038222621],[-87.7366052384966,41.98262254505321],[-87.73535767190711,41.98239786600738],[-87.7348798041031,41.98227373297128],[-87.73384060547012,41.98314409396789],[-87.73173824911562,41.984590399133644],[-87.72945591843056,41.985875949964935],[-87.72701560088534,41.98698835590777],[-87.72444081058144,41.98791689459065],[-87.72175636131716,41.988652615444835],[-87.71898812695741,41.98918842622027],[-87.71616279144035,41.989519161552074],[-87.71330759086021,41.98964163290658],[-87.71045005014612,41.98955465941871],[-87.70761771691214,41.98925907931813],[-87.7048378950833,41.98875774183254],[-87.70213738090416,41.98805547964658],[-87.70130845428721,41.98776916371649],[-87.69902524398623,41.98769943492142],[-87.69821170373227,41.9876144567049],[-87.69719128791728,41.98773372909481],[-87.69433612434082,41.98785572827826],[-87.69166031405568,41.98777384230287],[-87.69159139873784,41.98778189379384],[-87.68873622045525,41.98790375378741],[-87.68803896364335,41.9878823880985],[-87.68805480204918,41.98795786437284],[-87.68821807733654,41.990087985463305],[-87.6881550473426,41.991232770785736],[-87.68818234000892,41.991362822535734],[-87.68834562976392,41.993492942089794],[-87.68834520026317,41.99350074300462],[-87.68888487469005,41.99459800041185],[-87.68910890291014,41.99524310826773],[-87.69001608657248,41.996140373307874],[-87.6915062959249,41.99796151301551],[-87.69275011015156,41.99988282476047],[-87.69373553345531,42.00188581347774],[-87.69445305449959,42.00395119613113],[-87.69458378596802,42.00457370389006],[-87.69527902574336,42.005136582362674],[-87.69700174346968,42.00683990920752],[-87.698492404642,42.00866095146459],[-87.6997366408356,42.01058218078541],[-87.700722452186,42.01258510290414],[-87.70130704394555,42.01426699748676],[-87.70244089420054,42.01538776880409],[-87.70393191250412,42.01720873503338],[-87.70517648174496,42.01912990003193],[-87.7061625988482,42.0211327701576],[-87.70688074578347,42.02319806352597],[-87.70732398204107,42.0253058954417],[-87.7074749855775,42.02726681089215],[-87.70809226787681,42.029041748032114],[-87.7085355873403,42.03114957251726],[-87.7086996758381,42.03327964245954],[-87.70868048320581,42.03363009830987],[-87.70944136371287,42.035174948166976],[-87.71015978083604,42.03724021396942],[-87.71060322921807,42.039348026512485],[-87.71063017141248,42.039697578884756],[-87.71138479500411,42.04122946551637],[-87.71210334580076,42.04329471598005],[-87.7125469031816,42.045402517984634],[-87.71271116881545,42.04753257561674],[-87.7125945328789,42.04966437665611],[-87.71236443399313,42.050890806595],[-87.71256683380922,42.05185249388925],[-87.71273111970024,42.0539825489767],[-87.71263101093,42.05581215414799],[-87.71346566446994,42.05750592799707],[-87.71418447325942,42.05957115767487],[-87.71436820714305,42.0604439069989],[-87.71485658768354,42.06092614654667],[-87.71634904125403,42.06274692617323],[-87.71759489074822,42.06466793160846],[-87.71858212073214,42.06667067076404],[-87.71930120241717,42.06873586303269],[-87.7197451862416,42.070843624706704],[-87.71990976973527,42.072973660267635],[-87.71979333997858,42.07510545771278],[-87.71939699020723,42.07721848604215],[-87.71872451036184,42.079292393006696],[-87.7177823516318,42.08130720121187],[-87.71657956529502,42.083243500684716],[-87.7151277164049,42.08508263604291],[-87.71344077312295,42.086806886454426],[-87.71153497273528,42.08839963664279],[-87.70942866562255,42.08984553727829],[-87.70714213867267,42.09113065319572],[-87.70469741983128,42.09224259799592],[-87.7021180656754,42.09317065371984],[-87.69942893406683,42.09390587442735],[-87.696655944093,42.094441172669505],[-87.69382582563345,42.094771388009306],[-87.69096586099457,42.09489333692076],[-87.6881036211376,42.094805843577866],[-87.68526669907959,42.09450975123205],[-87.68248244307647,42.09400791406646],[-87.67977769219931,42.093305169606325],[-87.67717851689092,42.09240829195531],[-87.6747099670386,42.09132592631478],[-87.6723958300219,42.09006850542619],[-87.67025840109343,42.08864814875256],[-87.66831826832383,42.08707854538368],[-87.66659411419549,42.08537482180705],[-87.66510253576068,42.08355339583342],[-87.66385788509267,42.08163181809881],[-87.6628721315552,42.079628602684664],[-87.66215474719783,42.077563048500565],[-87.66197167508211,42.07669021340547],[-87.6614835695414,42.07620774811303],[-87.65999235445062,42.07438625025553],[-87.65874803990997,42.07246461167799],[-87.6577625920499,42.07046134704342],[-87.65704547998256,42.0683957557312],[-87.65681359964698,42.06728960874502],[-87.65647012565269,42.06675907137517],[-87.65548483968784,42.06475578406906],[-87.65476786783583,42.0626901755055],[-87.6543260904731,42.060582143817946],[-87.65416373547433,42.058451993849005],[-87.65428233852191,42.05632024147579],[-87.6544660506687,42.05534595983966],[-87.65438862323232,42.05433003733504],[-87.65450721283175,42.052198283309764],[-87.65473843064453,42.050971961719554],[-87.65453690483864,42.05001016608435],[-87.65451026489508,42.04966059901885],[-87.6537569005091,42.04812833168807],[-87.65304017832854,42.04606270465758],[-87.65259858017606,42.04395465902154],[-87.6524363322224,42.04182449975411],[-87.65245583591218,42.04147405160339],[-87.65169625375893,42.03992881641863],[-87.6509796936629,42.03786317246473],[-87.65053822370623,42.03575511502399],[-87.65038894585982,42.03379411534205],[-87.64990622656127,42.032402356850604],[-87.64932624118799,42.031828493268414],[-87.64863330181569,42.031367351004775],[-87.64669545769294,42.029797350574334],[-87.6449734454992,42.02809327040993],[-87.64348384165868,42.02627153173316],[-87.64224097924475,42.02434968816766],[-87.64125681043168,42.022346256331346],[-87.64054079205434,42.02028053719564],[-87.6401831717473,42.01857100734227],[-87.6390606957413,42.0168349356762],[-87.63807674521416,42.01483147247182],[-87.63785316011602,42.01418626411201],[-87.6369464447247,42.013288586321],[-87.63545741943624,42.01146673484617],[-87.63421509137402,42.00954479580058],[-87.63323140757257,42.00754128671478],[-87.63251582020631,42.00547550929735],[-87.63207519637778,42.00336736328727],[-87.63191375292257,42.00123715461031],[-87.63191418935854,42.00122935386937],[-87.63137543288944,42.00013182353829],[-87.63065999137268,41.998066030917826],[-87.63021948282284,41.99595787430585],[-87.63005812297472,41.993827659728375],[-87.63012219643468,41.9926828996636],[-87.63009502119831,41.99255283333204],[-87.6299336754857,41.990422617232596],[-87.63005298970891,41.988290860056395],[-87.6302095909834,41.987461225855895],[-87.62986207285687,41.98579775557841],[-87.62970075471411,41.98366753648251],[-87.62982006685027,41.9815357770792],[-87.62988428838113,41.98119552281469],[-87.62969256662322,41.98027769730809],[-87.62953127030782,41.97814747579771],[-87.62964259865436,41.9761583256369],[-87.62955661319089,41.97574665028609],[-87.62939533468139,41.9736164267991],[-87.6295146423401,41.971484664048624],[-87.62952308708954,41.97143991734497],[-87.62952156498432,41.971432629318564],[-87.62938381821192,41.969613073709816],[-87.62905897380809,41.96867456329677],[-87.62861873237128,41.96656638804143],[-87.62845751198162,41.96443615946949],[-87.62854200989196,41.96292660724339],[-87.62810204568405,41.96224530150797],[-87.6271192988254,41.960241717342114],[-87.62640445661532,41.95817587992537],[-87.62596437903545,41.95606768956335],[-87.62580327772254,41.95393745260055],[-87.6258075322962,41.95386149283705],[-87.62510418763931,41.95182854241871],[-87.62466419905161,41.94972034416276],[-87.62450315955583,41.94759010262564],[-87.62462259231803,41.945458334545734],[-87.62486653253234,41.944165766059946],[-87.62486158527491,41.94415146404218],[-87.62442166052358,41.942043261633664],[-87.62426065151513,41.93991301672978],[-87.62434108246812,41.938477370597724],[-87.62430933664196,41.938325222964664],[-87.6241483422233,41.93619497643867],[-87.62420586713726,41.935168180623975],[-87.62417582319276,41.935024180123165],[-87.62401484284898,41.93289393210205],[-87.62413427039462,41.93076215916234],[-87.62437189849148,41.92950281593711],[-87.62435408432356,41.929451303359684],[-87.62425864720873,41.92899383278243],[-87.62330745059418,41.9285750845358],[-87.6210002439089,41.92731654519046],[-87.61886943205666,41.92589514702506],[-87.61693553930053,41.92432458910392],[-87.6152171879919,41.92262000704617],[-87.61427076307514,41.92145969509326],[-87.61310997942296,41.92082630817337],[-87.61097955861666,41.91940475938415],[-87.60904605564174,41.91783406422895],[-87.60732808908813,41.91612935964582],[-87.60584219642303,41.91430707282519],[-87.60460267501568,41.912384762624136],[-87.60362144493168,41.910380950109996],[-87.60290793479912,41.908314939878544],[-87.60265898808761,41.90711923098682],[-87.60260854195907,41.907057349749316],[-87.60136925995641,41.9051350006705],[-87.60038824433299,41.9031311566182],[-87.59967492165713,41.90106512248889],[-87.59923613733321,41.89895680045991],[-87.59907609061132,41.896826498123694],[-87.59919629516466,41.89469473278838],[-87.5992162437928,41.89458917989465],[-87.59908338921142,41.893950748646965],[-87.59892336199997,41.89182044413011],[-87.59897824353926,41.89084714449135],[-87.59840685247497,41.88967965411659],[-87.59769374823007,41.88761360146258],[-87.5972551261755,41.88550526591433],[-87.597095184016,41.88337495519198],[-87.59716746943617,41.882093513210926],[-87.59710479391005,41.88179221820209],[-87.5969448674348,41.879661905803175],[-87.59706511732587,41.877530136088566],[-87.59746435775325,41.875417438480376],[-87.59813871700466,41.87334415673716],[-87.59847815961834,41.87261921494331],[-87.598509548662,41.872062482146035],[-87.59873175504119,41.87088639095626],[-87.59847531588285,41.86965353080212],[-87.59831537887054,41.86752321591699],[-87.59843556515206,41.86539144071461],[-87.59883468952695,41.86327873467107],[-87.59947763804809,41.86130152508384],[-87.5986328726729,41.85957465402803],[-87.59792010701744,41.85750858983999],[-87.59748169481435,41.855400242836964],[-87.59732183178775,41.85326992084617],[-87.5974420299026,41.851138141362355],[-87.59784110386448,41.84902543390278],[-87.59851518359996,41.84695214232368],[-87.59945775255545,41.844938229001265],[-87.60065971140693,41.84300308275869],[-87.60085157777604,41.842759874614366],[-87.6002839183454,41.842062776483104],[-87.59904598336261,41.84014037197253],[-87.59806605705265,41.83813647850431],[-87.59735355556126,41.836070401434675],[-87.59691531646314,41.833962043342005],[-87.59687279159094,41.83339508762468],[-87.59583212129722,41.83211678260639],[-87.59459451409987,41.83019432468379],[-87.59361488150442,41.828190387891716],[-87.59290263683562,41.826124277999426],[-87.59284713010773,41.82585710906401],[-87.59224638591954,41.82492377235081],[-87.59126690856472,41.82291981270548],[-87.59055479958293,41.820853685498264],[-87.590116892784,41.81874529378454],[-87.58995737907141,41.81661494581429],[-87.59007776709629,41.81448315932703],[-87.59030093551394,41.813301808811026],[-87.58992514320332,41.81149222652835],[-87.58976565660343,41.80936187545001],[-87.58988604017456,41.80723008652344],[-87.59002732356761,41.80648213443889],[-87.59002711294679,41.80648152316006],[-87.58958932673708,41.80437312342743],[-87.58942987162649,41.80224276906216],[-87.5895502557217,41.8001109778645],[-87.58975679662234,41.7990174637224],[-87.5896123219035,41.79832158174769],[-87.58758303039865,41.79721141514601],[-87.5854572998933,41.79578933242978],[-87.58352817101792,41.79421814613173],[-87.58181422022449,41.79251299787418],[-87.58033194632779,41.790690319073526],[-87.57909561190156,41.78876767231579],[-87.57811710640583,41.786763581865955],[-87.57740583234445,41.784697354957046],[-87.57696861552407,41.7825888955921],[-87.57680964024736,41.78045851266188],[-87.57693041002881,41.77832672423407],[-87.57732973417224,41.77621405990317],[-87.5780037402991,41.7741408631067],[-87.57894591266549,41.77212709531028],[-87.58014715586033,41.77019214394329],[-87.58159588323426,41.7683546359281],[-87.58327812917607,41.76663225858944],[-87.58517768412895,41.76504158965706],[-87.58727625102641,41.7635979379859],[-87.58955362162872,41.76231519651328],[-87.59198787105727,41.76120570885442],[-87.59455556865622,41.76028015080592],[-87.59723200316225,41.75954742788388],[-87.59862095523427,41.75927923332074],[-87.59836556862297,41.75888210338104],[-87.59738693013121,41.75687816760078],[-87.59667538027581,41.754812051141165],[-87.59623774756588,41.75270365694541],[-87.59607822035541,41.750573293283345],[-87.59619830751822,41.74844147804622],[-87.59659682497222,41.74632874109806],[-87.59726990814247,41.74425542658876],[-87.59771597559124,41.74330091306036],[-87.59699834490237,41.74183104682716],[-87.59628697924907,41.73976492139271],[-87.59584946714463,41.73765651945596],[-87.59568999580141,41.735526149359416],[-87.59581007357606,41.733394329055486],[-87.59620851649795,41.731281588457236],[-87.5968531684317,41.72929544202231],[-87.59662887744577,41.728835934412494],[-87.59591767184378,41.726769801011606],[-87.59548026492892,41.72466139225419],[-87.59532084291773,41.72253101654687],[-87.59544091370971,41.72039919189534],[-87.59583929341963,41.718286448254744],[-87.59651211883698,41.71621312984183],[-87.59745288565215,41.714199199311985],[-87.59865251204175,41.71226404568266],[-87.60009942696499,41.71042629784661],[-87.60177968228813,41.70870364546133],[-87.6036770876316,41.70711266892839],[-87.60577336662102,41.705668680087015],[-87.6080483330248,41.704385575141636],[-87.61048008507738,41.7032757012253],[-87.61304521612003,41.70234973786844],[-87.61571903954139,41.701616594500614],[-87.61847582587009,41.70108332495846],[-87.62128904976102,41.70075505981159],[-87.62413164452735,41.70063495714821],[-87.62697626180262,41.70072417228681],[-87.6297955338702,41.7010218467011],[-87.63256233617446,41.701525116262594],[-87.63525004752546,41.702229138722664],[-87.63783280553064,41.703127140173116],[-87.64028575482934,41.704210480044466],[-87.64258528577203,41.70546873402514],[-87.6447092612717,41.706889794114126],[-87.6466372296629,41.70845998485673],[-87.6483506215315,41.71016419465791],[-87.64983292862475,41.71198602092357],[-87.6510698631153,41.713907927647384],[-87.65204949567557,41.71591141393935],[-87.65276237101399,41.717977191887286],[-87.65320159973592,41.7200853720499],[-87.65336292561389,41.722215654805346],[-87.65324476758389,41.724347525719956],[-87.6528482360248,41.726460453060795],[-87.65220534013606,41.72844690217993],[-87.65243002442399,41.728906298533964],[-87.65314306090049,41.730972068345665],[-87.65358239600288,41.733080241575315],[-87.653743772462,41.735210518669476],[-87.65362560870877,41.73734238524975],[-87.65322901515908,41.739455309624724],[-87.65255778457947,41.74152894054561],[-87.65211254400771,41.74248366143189],[-87.65283143480919,41.74395317429159],[-87.65354465674856,41.74601893493305],[-87.6539841138373,41.748127100293],[-87.6541455476116,41.75025737089564],[-87.65402737592956,41.75238923242593],[-87.65363070926237,41.75450215324085],[-87.65295934106037,41.7565757821246],[-87.65226960301115,41.75805444520897],[-87.6524648654708,41.758089891603966],[-87.65384984322196,41.758452083830214],[-87.65512258885336,41.75810290167111],[-87.65788144739288,41.75756867698808],[-87.66069692013492,41.757239433962404],[-87.66354191879725,41.75711834007333],[-87.66638907193601,41.75720656016193],[-87.6692109874947,41.757503245265234],[-87.6719805155465,41.75800554076749],[-87.6746710087401,41.758708613791114],[-87.67725657797975,41.75960569956746],[-87.67971234091381,41.760688166347165],[-87.68201466087052,41.761945598234405],[-87.68414137396685,41.7633658951582],[-87.68607200222324,41.76493538903128],[-87.68778795064478,41.76663897499174],[-87.68927268637611,41.76846025647886],[-87.69051189820203,41.770381702760574],[-87.69149363484665,41.77238481741035],[-87.69220842072193,41.774450316124494],[-87.69264934798515,41.7765583121794],[-87.69281214398873,41.77868850775279],[-87.69269521343709,41.78082038927414],[-87.69229965480588,41.78293342492791],[-87.6920646985297,41.7836602575172],[-87.69223010155517,41.78369021026349],[-87.6936444028166,41.78405936841555],[-87.69574600592733,41.78348217589655],[-87.69850559902476,41.78294697232405],[-87.70132195868115,41.782616728290165],[-87.70416798809335,41.782494620890695],[-87.70674539796805,41.78257353366428],[-87.70815168685942,41.781779384359474],[-87.70983345129324,41.78101072375224],[-87.71000679106355,41.78047399563998],[-87.71094490925672,41.77845917830395],[-87.71214228177001,41.77652287830886],[-87.71358735911984,41.774683735609806],[-87.71526621072174,41.77295945330725],[-87.71716265957389,41.77136662749668],[-87.7192584383848,41.76992058781101]]],[[[-87.72642790692676,42.01100305670394],[-87.72853124602102,42.009556847641804],[-87.73081443518188,42.00827131365816],[-87.73325549344523,42.007158825155194],[-87.73583092460673,42.00623008671533],[-87.73851594302178,42.00549403436639],[-87.74128471164566,42.00495774983848],[-87.74411059004646,42.00462639262582],[-87.74696639003369,42.00450315049805],[-87.74982463647635,42.00458920892986],[-87.75265783083766,42.004883739738474],[-87.75543871492927,42.005383909036226],[-87.75814053238581,42.006084904422664],[-87.76073728538148,42.006979981158025],[-87.76320398415302,42.008060526880016],[-87.76551688695874,42.00931614424977],[-87.76765372818956,42.01073475074234],[-87.7695939324562,42.01230269463382],[-87.7713188126033,42.01400488608232],[-87.77281174974966,42.01582494205536],[-87.77405835361745,42.01774534372355],[-87.77504660159595,42.01974760481871],[-87.77576695518243,42.02181244934979],[-87.7762124526537,42.02391999697638],[-87.77637877704458,42.02604995426538],[-87.7763234524008,42.027080244909264],[-87.77751419323205,42.02853140135722],[-87.77876119186806,42.03045174445735],[-87.77974978964497,42.0324539577627],[-87.78047044468094,42.03451876574736],[-87.78091619233633,42.03662628842737],[-87.78108271322102,42.03875623261372],[-87.7809683758136,42.04088808721524],[-87.78057425324313,42.043001320715746],[-87.77990411403073,42.04507557892569],[-87.77896438683858,42.04709088110322],[-87.77776409952602,42.04902781255209],[-87.77631479306216,42.0508677118349],[-87.77463041109095,42.05259285078983],[-87.77272716618529,42.05418660560551],[-87.77062338405656,42.05563361729353],[-87.76833932720723,42.0569199399985],[-87.76589699971879,42.058033175702306],[-87.76331993505822,42.05896259400985],[-87.76063296895686,42.05969923584776],[-87.7578619995677,42.06023600006367],[-87.7550337372364,42.06056771207948],[-87.75217544632716,42.060691173927545],[-87.74931468162595,42.06060519517982],[-87.74647902189943,42.060310604467126],[-87.74369580321704,42.059810241475546],[-87.74099185464569,42.05910892949782],[-87.73839323890324,42.05821342880805],[-87.7359250005056,42.057132371315575],[-87.7336109238656,42.05587617713642],[-87.73147330370098,42.054456953897514],[-87.72953272998282,42.05288837975671],[-87.72780788950864,42.051185571279646],[-87.72631538601637,42.04936493746114],[-87.72506958056812,42.04744402131237],[-87.72408245373005,42.04544133055414],[-87.72336349085668,42.043376159060585],[-87.72291959155879,42.041268400785064],[-87.72275500419525,42.039138357970415],[-87.72281120210238,42.03810808844288],[-87.72162151585324,42.036656358525505],[-87.72037610467316,42.03473538417],[-87.71938932690847,42.03273264596458],[-87.7186706645624,42.03066743823541],[-87.71822701436479,42.02855965528038],[-87.71806262229114,42.026429599576126],[-87.71817904369537,42.02429778612511],[-87.71857512940085,42.02218474483178],[-87.71924703784232,42.02011082281316],[-87.72018827310085,42.018095988546484],[-87.72138974842534,42.01615963973641],[-87.72283987459217,42.014320416745164],[-87.7245246722193,42.012596023373],[-87.72642790692676,42.01100305670394]]]]},"properties":{"name":"Study area","buffer_mi":1.5}}]}